Title,Contact,Phone,Email,Website,Address,Hours
TriGreen Equipment  - Pelham,Sales Department,(205) 502-2435,bryanbarton@trigreen.com,http://www.trigreenequipment.com/,"3311 Pelham Pkwy.Pelham, AL 35124",Sun: closed; Mon: 08:00 AM - 05:00 PM; Tue: 08:00 AM - 05:00 PM; Wed: 08:00 AM - 05:00 PM; Thu: 08:00 AM - 05:00 PM; Fri: 08:00 AM - 05:00 PM; Sat: 08:00 AM - 12:00 PM
"Zimmerman Farm Service, Inc. - Bethel",Sales Department,(717) 373-1575,jay@zimmermanfarmservice.com,http://www.zimmermanfarmservice.com,"180 School RoadBethel, PA 19507",Sun: closed - closed; Mon: 07:00 AM - 06:00 PM; Tue: 07:00 AM - 06:00 PM; Wed: 07:00 AM - 06:00 PM; Thu: 07:00 AM - 06:00 PM; Fri: 07:00 AM - 06:00 PM; Sat: 07:00 AM - 02:00 PM
TriGreen Equipment  - Scottsboro,Sales Department,(256) 487-7068,bryanbarton@trigreen.com,http://www.trigreenequipment.com/,"26685 John T. Reid Pkwy.Scottsboro, AL 35768",Sun: closed; Mon: 07:00 AM - 05:00 PM; Tue: 07:00 AM - 05:00 PM; Wed: 07:00 AM - 05:00 PM; Thu: 07:00 AM - 05:00 PM; Fri: 07:00 AM - 05:00 PM; Sat: 07:00 AM - 12:00 PM
Western Equipment - Woodward,Sales Department,(580) 297-7049,sales@west-equip.com,https://west-equip.com,"3999 Lakeview Dr.Woodward, OK 73801",Sun: closed - closed; Mon: 08:00 AM - 05:00 PM; Tue: 08:00 AM - 05:00 PM; Wed: 08:00 AM - 05:00 PM; Thu: 08:00 AM - 05:00 PM; Fri: 08:00 AM - 05:00 PM; Sat: 08:00 AM - 12:00 PM
West River Equipment - Mandan,Jeremy Or Delvin,(701) 401-9371,sales@westriverequipment.com,https://www.westriverequipment.com/,"1417 39th AveMandan, ND 58544",Sun: closed - closed; Mon: 08:00 AM - 05:00 PM; Tue: 08:00 AM - 05:00 PM; Wed: 08:00 AM - 05:00 PM; Thu: 08:00 AM - 05:00 PM; Fri: 08:00 AM - 05:00 PM; Sat: 08:00 AM - 02:00 PM
Tri-County Equipment - Enterprise,Tyson Stebbins,,tstebbins@wcgg.biz,https://www.tri-countyequipment.com/,"911 S River St.Enterprise, OR 97828",Sun: closed - closed; Mon: 08:00 AM - 05:00 PM; Tue: 08:00 AM - 05:00 PM; Wed: 08:00 AM - 05:00 PM; Thu: 08:00 AM - 05:00 PM; Fri: 08:00 AM - 05:00 PM; Sat: 08:00 AM - 12:00 PM
Western Equipment - Weatherford,Sales Department,(580) 210-5243,sales@west-equip.com,https://west-equip.com,"4501 East Main St.Weatherford, OK 73096",Sun: closed - closed; Mon: 08:00 AM - 05:30 PM; Tue: 08:00 AM - 05:30 PM; Wed: 08:00 AM - 05:30 PM; Thu: 08:00 AM - 05:30 PM; Fri: 08:00 AM - 05:30 PM; Sat: 08:00 AM - 12:00 PM
Valley Tractor & Equipment - Riceville,Ryan Shamblin,,valleyequipment.ryan@gmail.com,https://valley-equipment-farm-equipment-supplier.business.site,"3645 Hwy. 11 S.Riceville, TN 37370",Sun: closed; Mon: 08:00 AM - 05:00 PM; Tue: 08:00 AM - 05:00 PM; Wed: 08:00 AM - 05:00 PM; Thu: 08:00 AM - 05:00 PM; Fri: 08:00 AM - 05:00 PM; Sat: closed
Zeisloft Farm Equipment - Bloomsburg,Sales,(844) 840-7495,zeisloftfarmequipment@gmail.com,http://www.zeisloftequip.com,"328 Danville RoadBloomsburg, PA 17815",Sun: closed; Mon: 08:00 AM - 07:00 PM; Tue: 08:00 AM - 07:00 PM; Wed: 08:00 AM - 07:00 PM; Thu: 08:00 AM - 07:00 PM; Fri: 08:00 AM - 07:00 PM; Sat: 08:00 AM - 02:00 PM
Tri-County Equipment - La Grande,Tyson Stebbins,,tstebbins@wcgg.biz,https://www.tri-countyequipment.com/,"62460 Commerce RoadLa Grande, OR 97850",Sun: closed - closed; Mon: 08:00 AM - 05:00 PM; Tue: 08:00 AM - 05:00 PM; Wed: 08:00 AM - 05:00 PM; Thu: 08:00 AM - 05:00 PM; Fri: 08:00 AM - 05:00 PM; Sat: 08:00 AM - 12:00 PM
Western Equipment - Clovis,Sales Department,(575) 218-7674,sales@west-equip.com,https://west-equip.com,"5800 Mabry DriveClovis, NM 88101",Sun: closed - closed; Mon: 08:00 AM - 05:00 PM; Tue: 08:00 AM - 05:00 PM; Wed: 08:00 AM - 05:00 PM; Thu: 08:00 AM - 05:00 PM; Fri: 08:00 AM - 05:00 PM; Sat: 08:00 AM - 12:00 PM
Tri-County Equipment - Baker City,Trevor Stebbins,,tjstebbins@wcgg.biz,https://www.tri-countyequipment.com/,"41216 Old Hwy. 30Baker City, OR 97814",Sun: closed - closed; Mon: 08:00 AM - 05:00 PM; Tue: 08:00 AM - 05:00 PM; Wed: 08:00 AM - 05:00 PM; Thu: 08:00 AM - 05:00 PM; Fri: 08:00 AM - 05:00 PM; Sat: closed - closed
"Mid-State Equipment Co., Inc.",Contact Sales Department,(844) 329-2903,rentals@midstateequip.com,https://midstateequip.com,"63 NJ-31Pennington, NJ 08534",Sun: closed - closed; Mon: 07:30 AM - 05:00 PM; Tue: 07:30 AM - 05:00 PM; Wed: 07:30 AM - 05:00 PM; Thu: 07:30 AM - 05:00 PM; Fri: 07:30 AM - 05:00 PM; Sat: 09:00 AM - 01:00 PM
Titan Machinery - Gillette,Sales Department,(855) 688-4826,leadmanagement@titanmachinery.com,http://www.titanmachinery.com,"4802 S Garner Lake RoadGillette, WY 82718",Sun: closed; Mon: 08:00 AM - 05:00 PM; Tue: 08:00 AM - 05:00 PM; Wed: 08:00 AM - 05:00 PM; Thu: 08:00 AM - 05:00 PM; Fri: 08:00 AM - 05:00 PM; Sat: 08:00 AM - 12:00 PM
Zimmer Tractor - Monroe,Sales Department,(513) 539-0539,,https://www.zimmertractor.com/,"461 Breaden DrMonroe, OH 45050",Sun: closed; Mon: 07:30 AM - 05:00 PM; Tue: 07:30 AM - 05:00 PM; Wed: 07:30 AM - 05:00 PM; Thu: 07:30 AM - 05:00 PM; Fri: 07:30 AM - 05:00 PM; Sat: 07:30 AM - 12:30 PM
Wyandot Tractor (FIC Dealerships) - Upper Sandusky,Bruce Kuenzli,,bkuenzli@wyandottractor.com ,http://ficdealerships.com/,"10264 County Highway 121Upper Sandusky, OH 43351",Sun: closed - closed; Mon: 08:00 AM - 05:00 PM; Tue: 08:00 AM - 05:00 PM; Wed: 08:00 AM - 05:00 PM; Thu: 08:00 AM - 05:00 PM; Fri: 08:00 AM - 05:00 PM; Sat: 08:00 AM - 12:00 PM
Wellington Implement - Wellington,Ag Sales,(440) 305-5586,sales@wellingtonimplement.com,http://www.wellingtonimplement.com,"625 South Main St.Wellington, OH 44090",Sun: closed; Mon: 08:00 AM - 05:00 PM; Tue: 08:00 AM - 05:00 PM; Wed: 08:00 AM - 05:00 PM; Thu: 08:00 AM - 05:00 PM; Fri: 08:00 AM - 05:00 PM; Sat: 08:00 AM - 12:00 PM
Wood County Implement (FIC Dealerships) - Bowling Green,Jeff Maas,,jmaas@woodcountyimp.com,http://ficdealerships.com/,"13051 Kramer RoadBowling Green, OH 43402",Sun: closed - closed; Mon: 08:00 AM - 05:00 PM; Tue: 08:00 AM - 05:00 PM; Wed: 08:00 AM - 05:00 PM; Thu: 08:00 AM - 05:00 PM; Fri: 08:00 AM - 05:00 PM; Sat: 08:00 AM - 12:00 PM
"Zimmerer Kubota & Equipment, Inc. - Gainsville",Sales Department,(940) 241-4265,tracij@zkmail.com,http://zimmererkubota.com/,"3218 US-82Gainesville, TX 76240",Sun: closed - closed; Mon: 08:00 AM - 05:00 PM; Tue: 08:00 AM - 05:00 PM; Wed: 08:00 AM - 05:00 PM; Thu: 08:00 AM - 05:00 PM; Fri: 08:00 AM - 05:00 PM; Sat: 08:00 AM - 12:00 PM
Stotz Equipment - Farmington,Jeremy Reiss,(505) 427-1531,jreiss@stotzeq.com	,http://www.stotzequipment.com/,"1201 Troy King RoadFarmington, NM 87401",Sun: closed - closed; Mon: 08:00 AM - 05:00 PM; Tue: 08:00 AM - 05:00 PM; Wed: 08:00 AM - 05:00 PM; Thu: 08:00 AM - 05:00 PM; Fri: 08:00 AM - 05:00 PM; Sat: 08:00 AM - 12:00 PM
"Zimmerer Kubota & Equipment, Inc. - Fort Worth",Sales Department,(817) 440-3966,tracij@zkmail.com,http://zimmererkubota.com/,"5165 Mark IV PkwyFort Worth, TX 76106",Sun: closed - closed; Mon: 07:30 AM - 05:00 PM; Tue: 07:30 AM - 05:00 PM; Wed: 07:30 AM - 05:00 PM; Thu: 07:30 AM - 05:00 PM; Fri: 07:30 AM - 05:00 PM; Sat: 07:30 AM - 12:00 PM
Wylie & Son - Seminole,Mickey O’Neill,(405) 590-4929,moneill@wyliesprayers.com,https://www.wyliesprayers.com/,"412 N. Hwy 385Seminole, TX 79360",Sun: closed - closed; Mon: 07:30 AM - 05:30 PM; Tue: 07:30 AM - 05:30 PM; Wed: 07:30 AM - 05:30 PM; Thu: 07:30 AM - 05:30 PM; Fri: 07:30 AM - 05:30 PM; Sat: 08:00 AM - 12:00 PM
Wylie & Son - Plainview,Mickey O’Neill,(405) 590-4929,moneill@wyliesprayers.com,https://www.wyliesprayers.com/,"700 South I-27Plainview, TX 79072",Sun: closed - closed; Mon: 07:30 AM - 05:30 PM; Tue: 07:30 AM - 05:30 PM; Wed: 07:30 AM - 05:30 PM; Thu: 07:30 AM - 05:30 PM; Fri: 07:30 AM - 05:30 PM; Sat: 08:00 AM - 12:00 PM
"Zimmerer Kubota & Equipment, Inc. - Denton",Sales Department,(940) 222-4529,tracij@zkmail.com,http://zimmererkubota.com/,"1421 N Loop 288Denton, TX 76209",Sun: closed - closed; Mon: 08:00 AM - 05:00 PM; Tue: 08:00 AM - 05:00 PM; Wed: 08:00 AM - 05:00 PM; Thu: 08:00 AM - 05:00 PM; Fri: 08:00 AM - 05:00 PM; Sat: 08:00 AM - 12:00 PM
"Zimmerer Kubota & Equipment, Inc. - Cleburne",Sales Department,(817) 440-3797,tracij@zkmail.com,http://zimmererkubota.com/,"2825 Nolan River RoadCleburne, TX 76033",Sun: closed - closed; Mon: 08:00 AM - 05:00 PM; Tue: 08:00 AM - 05:00 PM; Wed: 08:00 AM - 05:00 PM; Thu: 08:00 AM - 05:00 PM; Fri: 08:00 AM - 05:00 PM; Sat: 08:00 AM - 12:00 PM
"Zimmerer Kubota & Equipment, Inc. - Decatur",Sales Department,(940) 539-2145,tracij@zkmail.com,http://zimmererkubota.com/,"3472 US-287Decatur, TX 76234",Sun: closed - closed; Mon: 07:30 AM - 05:00 PM; Tue: 07:30 AM - 05:00 PM; Wed: 07:30 AM - 05:00 PM; Thu: 07:30 AM - 05:00 PM; Fri: 07:30 AM - 05:00 PM; Sat: 07:30 AM - 12:00 PM
Wylie & Son - Raymondville,Mickey O’Neill,(405) 590-4929,moneill@wyliesprayers.com,https://www.wyliesprayers.com/,"11079 Expressway 77Raymondville, TX 78580",Sun: closed - closed; Mon: 07:30 AM - 05:30 PM; Tue: 07:30 AM - 05:30 PM; Wed: 07:30 AM - 05:30 PM; Thu: 07:30 AM - 05:30 PM; Fri: 07:30 AM - 05:30 PM; Sat: 08:00 AM - 12:00 PM
Wylie & Son - Lamesa,Mickey O’Neill,(405) 590-4929,moneill@wyliesprayers.com,https://www.wyliesprayers.com/,"800 N. Dallas Ave.Lamesa, TX 79331",Sun: closed - closed; Mon: 07:30 AM - 05:00 PM; Tue: 07:30 AM - 05:00 PM; Wed: 07:30 AM - 05:00 PM; Thu: 07:30 AM - 05:00 PM; Fri: 07:30 AM - 05:00 PM; Sat: 08:00 AM - 12:00 PM
Wylie & Son - Amarillo,Mickey O’Neill,(405) 590-4929,moneill@wyliesprayers.com,https://www.wyliesprayers.com/,"14200 E. I-40Amarillo, TX 79118",Sun: closed - closed; Mon: 07:30 AM - 05:30 PM; Tue: 07:30 AM - 05:30 PM; Wed: 07:30 AM - 05:30 PM; Thu: 07:30 AM - 05:30 PM; Fri: 07:30 AM - 05:30 PM; Sat: 08:00 AM - 12:00 PM
Wylie & Son - Abilene,Mickey O’Neill,(405) 590-4929,moneill@wyliesprayers.com,https://www.wyliesprayers.com/,"3542 S. Treadaway Blvd.Abilene, TX 79602",Sun: closed - closed; Mon: 07:30 AM - 05:30 PM; Tue: 07:30 AM - 05:30 PM; Wed: 07:30 AM - 05:30 PM; Thu: 07:30 AM - 05:30 PM; Fri: 07:30 AM - 05:30 PM; Sat: 08:00 AM - 12:00 PM
Wylie & Son - Lubbock,Mickey O’Neill,(405) 590-4929,moneill@wyliesprayers.com,https://www.wyliesprayers.com/,"516 E. 42nd StreetLubbock, TX 79404",Sun: closed - closed; Mon: 07:30 AM - 05:30 PM; Tue: 07:30 AM - 05:30 PM; Wed: 07:30 AM - 05:30 PM; Thu: 07:30 AM - 05:30 PM; Fri: 07:30 AM - 05:30 PM; Sat: 08:00 AM - 12:00 PM
Western Equipment - Perryton,Sales Department,(312) 757-8619,sales@west-equip.com,https://west-equip.com,"South Loop 143Perryton, TX 79070",Sun: closed - closed; Mon: 08:00 AM - 06:00 PM; Tue: 08:00 AM - 06:00 PM; Wed: 08:00 AM - 06:00 PM; Thu: 08:00 AM - 06:00 PM; Fri: 08:00 AM - 06:00 PM; Sat: 08:00 AM - 12:00 PM
Western Equipment - Pampa,Sales Department,(312) 757-7193,sales@west-equip.com,https://west-equip.com,"12098 East FredericPampa, TX 79065",Sun: closed - closed; Mon: 08:00 AM - 06:00 PM; Tue: 08:00 AM - 06:00 PM; Wed: 08:00 AM - 06:00 PM; Thu: 08:00 AM - 06:00 PM; Fri: 08:00 AM - 06:00 PM; Sat: 08:00 AM - 12:00 PM
Western Equipment - Spearman,Sales Department,(312) 739-3591,sales@west-equip.com,https://west-equip.com,"13005 Highway 207 SSpearman, TX 79081",Sun: closed - closed; Mon: 08:00 AM - 06:00 PM; Tue: 08:00 AM - 06:00 PM; Wed: 08:00 AM - 06:00 PM; Thu: 08:00 AM - 06:00 PM; Fri: 08:00 AM - 06:00 PM; Sat: 08:00 AM - 12:00 PM
Western Equipment - Muleshoe,Sales Department,(806) 589-5568,sales@west-equip.com,https://west-equip.com,"2800 West American BoulevardMuleshoe, TX 79347",Sun: closed - closed; Mon: 08:00 AM - 05:00 PM; Tue: 08:00 AM - 05:00 PM; Wed: 08:00 AM - 05:00 PM; Thu: 08:00 AM - 05:00 PM; Fri: 08:00 AM - 05:00 PM; Sat: 08:00 AM - 12:00 PM
Wharton Tractor Company - Wharton,Sales Department,(979) 300-6981,whartontractor@yahoo.com,http://www.whartontractor.com/default.htm,"1007 N Richmond RdWharton, TX 77488",Sun: closed - closed; Mon: 08:00 AM - 05:00 PM; Tue: 08:00 AM - 05:00 PM; Wed: 08:00 AM - 05:00 PM; Thu: 08:00 AM - 05:00 PM; Fri: 08:00 AM - 05:00 PM; Sat: 08:00 AM - 12:00 PM
Western Equipment - Olton,Sales Department,(806) 513-2432,sales@west-equip.com,https://west-equip.com,"502 1st StreetOlton, TX 79064",Sun: closed - closed; Mon: 08:00 AM - 05:00 PM; Tue: 08:00 AM - 05:00 PM; Wed: 08:00 AM - 05:00 PM; Thu: 08:00 AM - 05:00 PM; Fri: 08:00 AM - 05:00 PM; Sat: 08:00 AM - 12:00 PM
Western Equipment - Dimmitt,Sales Department,(806) 589-5546,sales@west-equip.com,https://west-equip.com,"1546 South Hwy. 385Dimmitt, TX 79027",Sun: closed - closed; Mon: 08:00 AM - 05:00 PM; Tue: 08:00 AM - 05:00 PM; Wed: 08:00 AM - 05:00 PM; Thu: 08:00 AM - 05:00 PM; Fri: 08:00 AM - 05:00 PM; Sat: 08:00 AM - 12:00 PM
Western Equipment - Plainview,Sales Department,(806) 429-4094,sales@west-equip.com,https://west-equip.com,"910 N Date StreetPlainview, TX 79072",Sun: closed - closed; Mon: 08:00 AM - 05:00 PM; Tue: 08:00 AM - 05:00 PM; Wed: 08:00 AM - 05:00 PM; Thu: 08:00 AM - 05:00 PM; Fri: 08:00 AM - 05:00 PM; Sat: 08:00 AM - 12:00 PM
Western Equipment - Childress,Sales Department,(940) 226-3180,sales@west-equip.com,https://west-equip.com,"7769 US Hwy. 287Childress, TX 79201",Sun: closed - closed; Mon: 07:30 AM - 05:00 PM; Tue: 07:30 AM - 05:00 PM; Wed: 07:30 AM - 05:00 PM; Thu: 07:30 AM - 05:00 PM; Fri: 07:30 AM - 05:00 PM; Sat: 07:30 AM - 12:00 PM
Western Equipment - Dumas,Sales Department,(312) 626-8662,sales@west-equip.com,https://west-equip.com,"939 N Dumas AveDumas, TX 79029",Sun: closed - closed; Mon: 08:00 AM - 06:00 PM; Tue: 08:00 AM - 06:00 PM; Wed: 08:00 AM - 06:00 PM; Thu: 08:00 AM - 06:00 PM; Fri: 08:00 AM - 06:00 PM; Sat: 08:00 AM - 12:00 PM
Vogel Tractors - Fredericksburg,Van Burg,(830) 341-1158,van@vogeltractors.com,http://www.vogeltractors.com/default.htm,"12862 U.S. 290Fredericksburg, TX 78624",Sun: closed; Mon: 08:00 AM - 05:00 PM; Tue: 08:00 AM - 05:00 PM; Wed: 08:00 AM - 05:00 PM; Thu: 08:00 AM - 05:00 PM; Fri: 08:00 AM - 05:00 PM; Sat: closed
Western Equipment - Amarillo,Sales Department,(806) 513-3806,sales@west-equip.com,https://west-equip.com,"10800 Interstate 27Amarillo, TX 79119",Sun: closed - closed; Mon: 07:30 AM - 05:30 PM; Tue: 07:30 AM - 05:30 PM; Wed: 07:30 AM - 05:30 PM; Thu: 07:30 AM - 05:30 PM; Fri: 07:30 AM - 05:30 PM; Sat: 08:00 AM - 12:00 PM
Western Equipment - Floydada,Sales Department,(806) 576-0795,sales@west-equip.com,https://west-equip.com,"1207 S Ralls HighwayFloydada, TX 79235",Sun: closed - closed; Mon: 08:00 AM - 05:00 PM; Tue: 08:00 AM - 05:00 PM; Wed: 08:00 AM - 05:00 PM; Thu: 08:00 AM - 05:00 PM; Fri: 08:00 AM - 05:00 PM; Sat: 08:00 AM - 12:00 PM
Western Equipment - Dalhart,Sales Department,(312) 585-7706,sales@west-equip.com,https://west-equip.com,"Highway 87 SouthDalhart, TX 79022",Sun: closed - closed; Mon: 08:00 AM - 06:00 PM; Tue: 08:00 AM - 06:00 PM; Wed: 08:00 AM - 06:00 PM; Thu: 08:00 AM - 06:00 PM; Fri: 08:00 AM - 06:00 PM; Sat: 08:00 AM - 12:00 PM
United Ag & Turf - Waco,Lance  Herlocker,,lanceherlocker@unitedagt.com,https://www.unitedagandturf.com/,"6229 S I-35Waco, TX 76706",Sun: closed - closed; Mon: 07:30 AM - 05:00 PM; Tue: 07:30 AM - 05:00 PM; Wed: 07:30 AM - 05:00 PM; Thu: 07:30 AM - 05:00 PM; Fri: 07:30 AM - 05:00 PM; Sat: 08:00 AM - 12:00 PM
United Ag & Turf - Weatherford,Brett Bennett,,brettbennett@unitedagt.com,https://www.unitedagandturf.com/,"3404 E I-20Weatherford, TX 76087",Sun: closed - closed; Mon: 07:30 AM - 05:00 PM; Tue: 07:30 AM - 05:00 PM; Wed: 07:30 AM - 05:00 PM; Thu: 07:30 AM - 05:00 PM; Fri: 07:30 AM - 05:00 PM; Sat: 08:00 AM - 12:00 PM
United Ag & Turf - Tyler,Sales Department,(903) 581-6621,jasonroach@unitedagt.com,https://www.unitedagandturf.com/,"14630 Hwy 155Tyler, TX 75703",Sun: closed; Mon: 07:30 AM - 05:30 PM; Tue: 07:30 AM - 05:30 PM; Wed: 07:30 AM - 05:30 PM; Thu: 07:30 AM - 05:30 PM; Fri: 07:30 AM - 05:30 PM; Sat: 07:30 AM - 01:00 PM
United Ag & Turf - Terrell,Sales Department,(972) 563-1298,jasonfrasier@unitedagt.com,https://www.unitedagandturf.com/,"2402 West Moore AveTerrell, TX 75160",Sun: closed; Mon: 07:30 AM - 05:30 PM; Tue: 07:30 AM - 05:30 PM; Wed: 07:30 AM - 05:30 PM; Thu: 07:30 AM - 05:30 PM; Fri: 07:30 AM - 05:30 PM; Sat: 07:30 AM - 01:00 PM
United Ag & Turf - Sherman,Sales Department,(903) 893-4400,winstonmosse@unitedagt.com,https://www.unitedagandturf.com/,"4301 Texpma ParkwaySherman, TX 75090",Sun: closed; Mon: 07:30 AM - 05:00 PM; Tue: 07:30 AM - 05:00 PM; Wed: 07:30 AM - 05:00 PM; Thu: 07:30 AM - 05:00 PM; Fri: 07:30 AM - 05:00 PM; Sat: 07:30 AM - 12:00 PM
Watts Tractor Co.,Alvin or Jayson,(325) 335-3087,alvin@wattstractor.com,https://www.wattstractor.com/index.a5w,"2112 U.S. 277 NAnson, TX 79501",Sun: closed - closed; Mon: 08:00 AM - 05:00 PM; Tue: 08:00 AM - 05:00 PM; Wed: 08:00 AM - 05:00 PM; Thu: 08:00 AM - 05:00 PM; Fri: 08:00 AM - 05:00 PM; Sat: closed - closed
United Ag & Turf - Sulphur Springs,Sales Department,(903) 885-2050,lanceherlocker@unitedagt.com,https://www.unitedagandturf.com/,"3454 I-30 WSulphur Springs, TX 75482",Sun: closed; Mon: 07:30 AM - 05:00 PM; Tue: 07:30 AM - 05:00 PM; Wed: 07:30 AM - 05:00 PM; Thu: 07:30 AM - 05:00 PM; Fri: 07:30 AM - 05:00 PM; Sat: 07:30 AM - 12:00 PM
United Ag & Turf - Taylor,David Crouch,,davidc@cpetaylor.com,https://www.unitedagandturf.com/,"4000 West 2nd StreetTaylor, TX 76574",Sun: closed; Mon: 08:00 AM - 05:30 PM; Tue: 08:00 AM - 05:30 PM; Wed: 08:00 AM - 05:30 PM; Thu: 08:00 AM - 05:30 PM; Fri: 08:00 AM - 05:30 PM; Sat: 08:00 AM - 12:00 PM
United Ag & Turf - Temple,Kenneth Oliver,,kennetholiver@unitedagt.com,https://www.unitedagandturf.com/,"2308 Barnhardt RoadTemple, TX 76501",Sun: closed; Mon: 08:00 AM - 05:30 PM; Tue: 08:00 AM - 05:30 PM; Wed: 08:00 AM - 05:30 PM; Thu: 08:00 AM - 05:30 PM; Fri: 08:00 AM - 05:30 PM; Sat: 08:00 AM - 01:00 PM
United Ag & Turf - Rhome,Sales Department,(817) 636-2223,tomhorton@unitedagt.com,https://www.unitedagandturf.com/,"9769 S US Hwy 287Rhome, TX 76078",Sun: closed; Mon: 07:30 AM - 05:00 PM; Tue: 07:30 AM - 05:00 PM; Wed: 07:30 AM - 05:00 PM; Thu: 07:30 AM - 05:00 PM; Fri: 07:30 AM - 05:00 PM; Sat: 07:30 AM - 12:00 PM
United Ag & Turf - Mineola,Sales Department,(903) 569-3845,karenlynch@unitedagt.com,https://www.unitedagandturf.com/,"1409 West Broad StreetMineola, TX 75773",Sun: closed; Mon: 07:30 AM - 05:00 PM; Tue: 07:30 AM - 05:00 PM; Wed: 07:30 AM - 05:00 PM; Thu: 07:30 AM - 05:00 PM; Fri: 07:30 AM - 05:00 PM; Sat: 07:30 AM - 12:00 PM
United Ag & Turf - McKinney,Sales Department,(214) 544-2900,michaelmcgill@unitedagt.com,https://www.unitedagandturf.com/,"3501 North Central ExpyMcKinney, TX 75071",Sun: closed; Mon: 07:00 AM - 06:00 PM; Tue: 07:00 AM - 06:00 PM; Wed: 07:00 AM - 06:00 PM; Thu: 07:00 AM - 06:00 PM; Fri: 07:00 AM - 06:00 PM; Sat: 07:00 AM - 04:00 PM
United Ag & Turf - Paris,Sales Department,(903) 784-6673,benjaminroberts@unitedagt.com,https://www.unitedagandturf.com/,"2195 NE Loop 286Paris, TX 75460",Sun: closed; Mon: 07:30 AM - 05:00 PM; Tue: 07:30 AM - 05:00 PM; Wed: 07:30 AM - 05:00 PM; Thu: 07:30 AM - 05:00 PM; Fri: 07:30 AM - 05:00 PM; Sat: 07:30 AM - 12:00 PM
United Ag & Turf - Mt. Pleasant,Sales Department,(903) 572-7961,alanhindman@unitedagt.com,https://www.unitedagandturf.com/,"2601 S Jefferson AveMt. Pleasant, TX 75455",Sun: closed; Mon: 07:30 AM - 05:00 PM; Tue: 07:30 AM - 05:00 PM; Wed: 07:30 AM - 05:00 PM; Thu: 07:30 AM - 05:00 PM; Fri: 07:30 AM - 05:00 PM; Sat: 07:30 AM - 12:00 PM
United Ag & Turf - Hillsboro,Jeff Murray,,jeffmurray@unitedagt.com,https://www.unitedagandturf.com/,"1520 S Abbott AveHillsboro, TX 76645",Sun: closed - closed; Mon: 07:30 AM - 05:00 PM; Tue: 07:30 AM - 05:00 PM; Wed: 07:30 AM - 05:00 PM; Thu: 07:30 AM - 05:00 PM; Fri: 07:30 AM - 05:00 PM; Sat: 08:00 AM - 12:00 PM
United Ag & Turf - Cleburne,Arnie Griffin,,arnoldgriffin@agt.com,https://www.unitedagandturf.com/,"3319 North MainCleburne, TX 76031",Sun: closed - closed; Mon: 07:30 AM - 05:00 PM; Tue: 07:30 AM - 05:00 PM; Wed: 07:30 AM - 05:00 PM; Thu: 07:30 AM - 05:00 PM; Fri: 07:30 AM - 05:00 PM; Sat: 08:00 AM - 12:00 PM
United Ag & Turf - Navasota,Sales Department,(936) 825-6575,ParkerWilliams@unitedagt.com,https://www.unitedagandturf.com/,"9819 Hwy. 6Navasota, TX 77868",Sun: closed; Mon: 07:30 AM - 05:30 PM; Tue: 07:30 AM - 05:30 PM; Wed: 07:30 AM - 05:30 PM; Thu: 07:30 AM - 05:30 PM; Fri: 07:30 AM - 05:30 PM; Sat: 07:30 AM - 12:00 PM
United Ag & Turf - Gainesville,Sales Department,(940) 668-6042,johncorcoran@unitedagt.com,https://www.unitedagandturf.com/,"1710 Hwy 82 WestGainesville, TX 76240",Sun: closed; Mon: 08:00 AM - 05:00 PM; Tue: 08:00 AM - 05:00 PM; Wed: 08:00 AM - 05:00 PM; Thu: 08:00 AM - 05:00 PM; Fri: 08:00 AM - 05:00 PM; Sat: 08:00 AM - 12:00 PM
Tri-Tex Sales - Cisco,Sales Department,(254) 791-5886,tritex@txol.net,https://www.tritex-sales.com/default.htm,"1408 Interstate 20 Cisco, TX 76437",Sun: closed; Mon: 08:00 AM - 05:00 PM; Tue: 08:00 AM - 05:00 PM; Wed: 08:00 AM - 05:00 PM; Thu: 08:00 AM - 05:00 PM; Fri: 08:00 AM - 05:00 PM; Sat: closed
Tuscola Tractor Sales - Tuscola,Sales Department,(325) 554-9700,,http://www.tuscolatractor.com/default.htm,"835 U.S. 83Tuscola, TX 79562",Sun: closed - closed; Mon: 08:00 AM - 05:00 PM; Tue: 08:00 AM - 05:00 PM; Wed: 08:00 AM - 05:00 PM; Thu: 08:00 AM - 05:00 PM; Fri: 08:00 AM - 05:00 PM; Sat: 08:00 AM - 12:00 PM
United Ag & Turf - Cameron,Mason Marburger,,masonm@cpecam.com,https://www.unitedagandturf.com/,"2401 N Travis Ave.Cameron, TX 76520",Sun: closed; Mon: 07:30 AM - 05:00 PM; Tue: 07:30 AM - 05:00 PM; Wed: 07:30 AM - 05:00 PM; Thu: 07:30 AM - 05:00 PM; Fri: 07:30 AM - 05:00 PM; Sat: 07:30 AM - 12:00 PM
United Ag & Turf - Ennis,Robert Graham,,robertgraham@unitedagt.com,https://www.unitedagandturf.com/,"4839 N I-45Ennis, TX 75519",Sun: closed - closed; Mon: 07:30 AM - 05:00 PM; Tue: 07:30 AM - 05:00 PM; Wed: 07:30 AM - 05:00 PM; Thu: 07:30 AM - 05:00 PM; Fri: 07:30 AM - 05:00 PM; Sat: 08:00 AM - 12:00 PM
United Ag & Turf - Athens,Sales Department,(903) 675-8502,scottchancellor@unitedagt.com,https://www.unitedagandturf.com/,"2001 NE Loop 7Athens, TX 75751",Sun: closed; Mon: 07:30 AM - 05:00 PM; Tue: 07:30 AM - 05:00 PM; Wed: 07:30 AM - 05:00 PM; Thu: 07:30 AM - 05:00 PM; Fri: 07:30 AM - 05:00 PM; Sat: 07:30 AM - 12:00 PM
Tellus Equipment Solutions - Uvalde,Sales Department,(830) 218-4008,ebenefield@tellusequip.com,https://www.tellusequip.com/,"2305 E Main St.Uvalde, TX 78801",Sun: closed - closed; Mon: 07:30 AM - 05:30 PM; Tue: 07:30 AM - 05:30 PM; Wed: 07:30 AM - 05:30 PM; Thu: 07:30 AM - 05:30 PM; Fri: 07:30 AM - 05:30 PM; Sat: 07:30 AM - 12:00 PM
United Ag & Turf - Bryan,Matt Cargill,,mattc@cpebry.com,https://www.unitedagandturf.com/,"3110 Hwy. 21 WBryan, TX 77803",Sun: closed; Mon: 08:00 AM - 05:30 PM; Tue: 08:00 AM - 05:00 PM; Wed: 08:00 AM - 05:30 PM; Thu: 08:00 AM - 05:30 PM; Fri: 08:00 AM - 05:30 PM; Sat: 08:00 AM - 12:00 PM
Tellus Equipment Solutions - Taft,Sales Department,(361) 287-7447,ebenefield@tellusequip.com,https://www.tellusequip.com/,"9880 US Highway 181Taft, TX 78390",Sun: closed - closed; Mon: 07:30 AM - 05:30 PM; Tue: 07:30 AM - 05:30 PM; Wed: 07:30 AM - 05:30 PM; Thu: 07:30 AM - 05:30 PM; Fri: 07:30 AM - 05:30 PM; Sat: 07:30 AM - 12:00 PM
The Tractor Shop - Seymour,Cody  Wright,,thetractorshop@srcaccess.net,https://thetractorshop.net,"1828 US Hwy. 277 BSeymour, TX 76380",Sun: closed; Mon: 08:00 AM - 05:00 PM; Tue: 08:00 AM - 05:00 PM; Wed: 08:00 AM - 05:00 PM; Thu: 08:00 AM - 05:00 PM; Fri: 08:00 AM - 05:00 PM; Sat: 08:00 AM - 12:00 PM
Tellus Equipment Solutions - Weslaco,Sales Department,(956) 402-3921,ebenefield@tellusequip.com,https://www.tellusequip.com/,"2000 East Expressway 83Weslaco, TX 78596",Sun: closed - closed; Mon: 07:30 AM - 05:30 PM; Tue: 07:30 AM - 05:30 PM; Wed: 07:30 AM - 05:30 PM; Thu: 07:30 AM - 05:30 PM; Fri: 07:30 AM - 05:30 PM; Sat: 07:30 AM - 12:00 PM
Tellus Equipment Solutions - Seguin,Sales Department,(830) 477-0096,ebenefield@tellusequip.com,https://www.tellusequip.com/,"3030 N Austin St.Seguin, TX 78155",Sun: closed - closed; Mon: 07:30 AM - 05:30 PM; Tue: 07:30 AM - 05:30 PM; Wed: 07:30 AM - 05:30 PM; Thu: 07:30 AM - 05:30 PM; Fri: 07:30 AM - 05:30 PM; Sat: 07:30 AM - 12:00 PM
Tellus Equipment Solutions - Raymondville,Sales Department,(956) 758-8576,ebenefield@tellusequip.com,https://www.tellusequip.com/,"945 FM 3168Raymondville, TX  78580",Sun: closed - closed; Mon: 08:00 AM - 05:30 PM; Tue: 07:30 AM - 05:30 PM; Wed: 07:30 AM - 05:30 PM; Thu: 07:30 AM - 05:30 PM; Fri: 07:30 AM - 05:30 PM; Sat: 07:30 AM - 12:00 PM
Tellus Equipment Solutions - Pleasanton,Sales Department,(830) 215-3290,ebenefield@tellusequip.com,https://www.tellusequip.com/,"1822 Bensdale Rd. (FM 476)Pleasanton, TX 78064",Sun: closed - closed; Mon: 08:00 AM - 05:30 PM; Tue: 07:30 AM - 05:30 PM; Wed: 07:30 AM - 05:30 PM; Thu: 07:30 AM - 05:30 PM; Fri: 07:30 AM - 05:30 PM; Sat: 07:30 AM - 12:00 PM
Tellus Equipment Solutions - Mission,Sales Department,(956) 374-2649,ebenefield@tellusequip.com,https://www.tellusequip.com/,"809 U.S. 83 BusinessMission, TX 78572",Sun: closed - closed; Mon: 07:30 AM - 05:30 PM; Tue: 07:30 AM - 05:30 PM; Wed: 07:30 AM - 05:30 PM; Thu: 07:30 AM - 05:30 PM; Fri: 07:30 AM - 05:30 PM; Sat: 07:30 AM - 12:00 PM
Tellus Equipment Solutions - Pearsall,Sales Department,(830) 368-0385,ebenefield@tellusequip.com,https://www.tellusequip.com/,"750 S IH 35Pearsall, TX 78061",Sun: closed - closed; Mon: 07:30 AM - 05:30 PM; Tue: 07:30 AM - 05:30 PM; Wed: 07:30 AM - 05:30 PM; Thu: 07:30 AM - 05:30 PM; Fri: 07:30 AM - 05:30 PM; Sat: 07:30 AM - 12:00 PM
Tellus Equipment Solutions - San Antonio,Sales Department,(210) 879-4163,ebenefield@tellusequip.com,https://www.tellusequip.com/,"8587 Bandera RoadSan Antonio, TX 78219",Sun: closed - closed; Mon: 07:30 AM - 05:30 PM; Tue: 07:30 AM - 05:30 PM; Wed: 07:30 AM - 05:30 PM; Thu: 07:30 AM - 05:30 PM; Fri: 07:30 AM - 05:30 PM; Sat: 07:30 AM - 12:00 PM
Tellus Equipment Solutions - Kerrville,Sales Department,(830) 477-0509,ebenefield@tellusequip.com,https://www.tellusequip.com/,"844 Harper RoadKerrville, TX 78006",Sun: closed; Mon: 07:30 AM - 05:30 PM; Tue: 07:30 AM - 05:30 PM; Wed: 07:30 AM - 05:30 PM; Thu: 07:30 AM - 05:30 PM; Fri: 07:30 AM - 05:30 PM; Sat: 07:30 AM - 12:00 PM
Tellus Equipment Solutions - New Braunfels,Eric Benefield,(830) 267-2908,ebenefield@tellusequip.com,https://www.tellusequip.com/,"19080 N I35New Braunfels, TX 78006",Sun: closed; Mon: 07:30 AM - 05:30 PM; Tue: 07:30 AM - 05:30 PM; Wed: 07:30 AM - 05:30 PM; Thu: 07:30 AM - 05:30 PM; Fri: 07:30 AM - 05:30 PM; Sat: 07:30 AM - 12:00 PM
Tellus Equipment Solutions - Kenedy,Sales Department,(830) 215-4377,ebenefield@tellusequip.com,https://www.tellusequip.com/,"207 N Sunset Strip St.Kenedy, TX 78119",Sun: closed - closed; Mon: 07:30 AM - 05:30 PM; Tue: 07:30 AM - 05:30 PM; Wed: 07:30 AM - 05:30 PM; Thu: 07:30 AM - 05:30 PM; Fri: 07:30 AM - 05:30 PM; Sat: 07:30 AM - 12:00 PM
Tellus Equipment Solutions - Harlingen,Sales Department,(956) 758-8231,ebenefield@tellusequip.com,https://www.tellusequip.com/,"2806 North 77 ExpresswayHarlingen, TX 78552",Sun: closed - closed; Mon: 07:30 AM - 05:30 PM; Tue: 07:30 AM - 05:30 PM; Wed: 07:30 AM - 05:30 PM; Thu: 07:30 AM - 05:30 PM; Fri: 07:30 AM - 05:30 PM; Sat: 07:30 AM - 12:00 PM
Tellus Equipment Solutions - Fredericksburg,Sales Department,(830) 215-8133,ebenefield@tellusequip.com,https://www.tellusequip.com/,"1875 S. HWY 87Fredericksburg, TX 78624",Sun: closed - closed; Mon: 07:30 AM - 05:30 PM; Tue: 07:30 AM - 05:30 PM; Wed: 07:30 AM - 05:30 PM; Thu: 07:30 AM - 05:30 PM; Fri: 07:30 AM - 05:30 PM; Sat: 07:30 AM - 12:00 PM
Tellus Equipment Solutions - Boerne,Sales Department,(830) 215-3195,ebenefield@tellusequip.com,https://www.tellusequip.com/,"28810 I-10 NBoerne, TX 78006",Sun: closed; Mon: 07:30 AM - 05:00 PM; Tue: 07:30 AM - 05:30 PM; Wed: 07:30 AM - 05:30 PM; Thu: 07:30 AM - 05:30 PM; Fri: 07:30 AM - 05:30 PM; Sat: 07:30 AM - 12:00 PM
Tellus Equipment Solutions - Castroville,Sales Department,(830) 476-7730,ebenefield@tellusequip.com,https://www.tellusequip.com/,"133 County Rd. 4718Castroville, TX 78009",Sun: closed - closed; Mon: 07:30 AM - 05:30 PM; Tue: 07:30 AM - 05:30 PM; Wed: 07:30 AM - 05:30 PM; Thu: 07:30 AM - 05:30 PM; Fri: 07:30 AM - 05:30 PM; Sat: 07:30 AM - 12:00 PM
Tellus Equipment Solutions - Floresville,Sales Department,(830) 215-0554,ebenefield@tellusequip.com,https://www.tellusequip.com/,"688 State Highway 97 EFloresville, TX 78114",Sun: closed - closed; Mon: 07:30 AM - 05:30 PM; Tue: 07:30 AM - 05:30 PM; Wed: 07:30 AM - 05:30 PM; Thu: 07:30 AM - 05:30 PM; Fri: 07:30 AM - 05:30 PM; Sat: 07:30 AM - 12:00 PM
Tellus Equipment Solutions - Brownsville,Sales Department,(833) 763-7387,ebenefield@tellusequip.com,https://www.tellusequip.com/,"3555 West FM 3248Brownsville, TX 78521",Sun: closed - closed; Mon: 07:30 AM - 05:30 PM; Tue: 07:30 AM - 05:30 PM; Wed: 07:30 AM - 05:30 PM; Thu: 07:30 AM - 05:30 PM; Fri: 07:30 AM - 05:30 PM; Sat: 07:30 AM - 12:00 PM
South Plains Implement - Tornillo,Lindsay Snodgrass,,,http://www.southplainsimplement.com,"18770 AlamedaTornillo, TX 79853",Sun: closed; Mon: 08:00 AM - 05:00 PM; Tue: 08:00 AM - 05:00 PM; Wed: 08:00 AM - 05:00 PM; Thu: 08:00 AM - 05:00 PM; Fri: 08:00 AM - 05:00 PM; Sat: 08:00 AM - 12:00 PM
Tellus Equipment Solutions - Alice,Sales Department,(361) 752-3185,ebenefield@tellusequip.com,https://www.tellusequip.com/,"4241 Hwy. 359 EAlice, TX 78332",Sun: closed - closed; Mon: 07:30 AM - 05:00 PM; Tue: 07:30 AM - 05:00 PM; Wed: 07:30 AM - 05:00 PM; Thu: 07:30 AM - 05:00 PM; Fri: 07:30 AM - 05:00 PM; Sat: 07:30 AM - 12:00 PM
Tellus Equipment Solutions - Bandera,Sales Department,(210) 879-3451,ebenefield@tellusequip.com,https://www.tellusequip.com/,"2230 Hwy 16 SBandera, TX 78003",Sun: closed; Mon: 07:30 AM - 05:30 PM; Tue: 07:30 AM - 05:30 PM; Wed: 07:30 AM - 05:30 PM; Thu: 07:30 AM - 05:30 PM; Fri: 07:30 AM - 05:30 PM; Sat: 07:30 AM - 12:00 PM
Tellus Equipment Solutions - Beeville,Sales Department,(361) 596-0780,ebenefield@tellusequip.com,https://www.tellusequip.com/,"2038 Business 181 SBeeville, TX 78102",Sun: closed - closed; Mon: 07:30 AM - 05:30 PM; Tue: 07:30 AM - 05:30 PM; Wed: 07:30 AM - 05:30 PM; Thu: 07:30 AM - 05:30 PM; Fri: 07:30 AM - 05:30 PM; Sat: 07:30 AM - 12:00 PM
South Plains Implement - Tahoka,Brian Sellers,,bsellers@beimplement.com,http://www.beimplement.com/,"1519 Ave. HTahoka, TX 79373",Sun: closed; Mon: 09:00 AM - 05:30 PM; Tue: 09:00 AM - 05:30 PM; Wed: 09:00 AM - 05:30 PM; Thu: 09:00 AM - 05:30 PM; Fri: 09:00 AM - 05:30 PM; Sat: 09:00 AM - 12:00 PM
South Plains Implement - Littlefield,Cody Oaks,,coaks@beimplement.com,http://www.beimplement.com/,"1783 Marshall Howard Blvd.Littlefield, TX 79339",Sun: closed; Mon: 09:00 AM - 05:30 PM; Tue: 09:00 AM - 05:30 PM; Wed: 09:00 AM - 05:30 PM; Thu: 09:00 AM - 05:30 PM; Fri: 09:00 AM - 05:30 PM; Sat: 09:00 AM - 12:00 PM
South Plains Implement - Seminole,Jeff Coffman,,jeffc@southplainsimplement.com,http://www.southplainsimplement.com,"204 N Highway 385Seminole, TX 79360",Sun: closed; Mon: 08:00 AM - 05:00 PM; Tue: 08:00 AM - 05:00 PM; Wed: 08:00 AM - 05:00 PM; Thu: 08:00 AM - 05:00 PM; Fri: 08:00 AM - 05:00 PM; Sat: 08:00 AM - 12:00 PM
"Southwest Auction Company, Inc. - Howe",Jay Carson,(903) 532-5501,jaycarson36@yahoo.com,https://www.southwestauction.com,"1510 South Collins FreewayHowe, TX 75459",Sun: closed; Mon: 08:00 AM - 05:00 PM; Tue: 08:00 AM - 05:00 PM; Wed: 08:00 AM - 05:00 PM; Thu: 08:00 AM - 05:00 PM; Fri: 08:00 AM - 05:00 PM; Sat: closed
South Plains Implement - Lamesa,Jerry Jaquess,,jjaquess@beimplement.com,http://www.beimplement.com/,"1605 N Hwy. 87Lamesa, TX 79331",Sun: closed; Mon: 09:00 AM - 05:30 PM; Tue: 09:00 AM - 05:30 PM; Wed: 09:00 AM - 05:30 PM; Thu: 09:00 AM - 05:30 PM; Fri: 09:00 AM - 05:30 PM; Sat: 09:00 AM - 12:00 PM
South Plains Implement - San Angelo,Clifton Sonnenberg,,,http://www.southplainsimplement.com,"3993 Tractor TrailSan Angelo, TX 76905",Sun: closed; Mon: 08:00 AM - 05:00 PM; Tue: 08:00 AM - 05:00 PM; Wed: 08:00 AM - 05:00 PM; Thu: 08:00 AM - 05:00 PM; Fri: 08:00 AM - 05:00 PM; Sat: 08:00 AM - 12:00 PM
South Plains Implement - Morton,Brandon Jones,,brandon@beimplement.com,http://www.beimplement.com/,"Highway 214 NorthMorton, TX 79346",Sun: closed; Mon: 09:00 AM - 05:30 PM; Tue: 09:00 AM - 05:30 PM; Wed: 09:00 AM - 05:30 PM; Thu: 09:00 AM - 05:30 PM; Fri: 09:00 AM - 05:30 PM; Sat: 09:00 AM - 12:00 PM
South Plains Implement - Denver City,Aubrey Cox,,,http://www.southplainsimplement.com,"West Hwy. 83Denver City, TX 79323",Sun: closed; Mon: 08:00 AM - 05:00 PM; Tue: 08:00 AM - 05:00 PM; Wed: 08:00 AM - 05:00 PM; Thu: 08:00 AM - 05:00 PM; Fri: 08:00 AM - 05:00 PM; Sat: 08:00 AM - 12:00 PM
South Plains Implement - Ballinger,John Large,,,http://www.southplainsimplement.com,"8631 Hwy. 67 SBallinger, TX 76821",Sun: closed; Mon: 08:00 AM - 05:00 PM; Tue: 08:00 AM - 05:00 PM; Wed: 08:00 AM - 05:00 PM; Thu: 08:00 AM - 05:00 PM; Fri: 08:00 AM - 05:00 PM; Sat: 08:00 AM - 12:00 PM
Quality Implement Co. - Stamford,QIC SALES,(833) 595-1546,BRANDONT@QUALITYIMPLEMENT.COM,http://qualityimplement.com/,"6469 S Hwy. 277Stamford, TX 79553",Sun: closed - closed; Mon: 07:00 AM - 05:00 PM; Tue: 07:00 AM - 05:00 PM; Wed: 07:00 AM - 05:00 PM; Thu: 07:00 AM - 05:00 PM; Fri: 07:00 AM - 05:00 PM; Sat: 07:00 AM - 12:00 PM
South Plains Implement - Levelland,Jay Macha,,jmacha@beimplement.com,http://www.beimplement.com/,"601 East Hwy. 114Levelland, TX 79336",Sun: closed; Mon: 09:00 AM - 05:30 PM; Tue: 09:00 AM - 05:30 PM; Wed: 09:00 AM - 05:30 PM; Thu: 09:00 AM - 05:30 PM; Fri: 09:00 AM - 05:30 PM; Sat: 09:00 AM - 12:00 PM
South Plains Implement - Brownfield,Sales,(806) 637-3594,kelvin@beimplement.com,http://www.beimplement.com/,"1645 FM 403Brownfield, TX 79316",Sun: closed; Mon: 09:00 AM - 05:30 PM; Tue: 09:00 AM - 05:30 PM; Wed: 09:00 AM - 05:30 PM; Thu: 09:00 AM - 05:30 PM; Fri: 09:00 AM - 05:30 PM; Sat: 09:00 AM - 12:00 PM
Quality Implement Co. - Rotan,QIC SALES,(833) 595-1594,BRANDONT@QUALITYIMPLEMENT.COM,http://qualityimplement.com/,"309 S ClevelandRotan, TX 79546",Sun: closed - closed; Mon: 07:00 AM - 05:00 PM; Tue: 07:00 AM - 05:00 PM; Wed: 07:00 AM - 05:00 PM; Thu: 07:00 AM - 05:00 PM; Fri: 07:00 AM - 05:00 PM; Sat: 07:00 AM - 12:00 PM
South Plains Implement - Big Spring,Nate Avey,,,http://www.southplainsimplement.com,"3011 North Hwy. 87Big Spring, TX 79720",Sun: closed; Mon: 08:00 AM - 05:00 PM; Tue: 08:00 AM - 05:00 PM; Wed: 08:00 AM - 05:00 PM; Thu: 08:00 AM - 05:00 PM; Fri: 08:00 AM - 05:00 PM; Sat: 08:00 AM - 12:00 PM
Quality Implement Co. - Munday,QIC SALES,(833) 591-1266,BRANDONT@QUALITYIMPLEMENT.COM,http://qualityimplement.com/,"10576 Hwy. 277 SouthMunday, TX 76371",Sun: closed - closed; Mon: 07:00 AM - 05:00 PM; Tue: 07:00 AM - 05:00 PM; Wed: 07:00 AM - 05:00 PM; Thu: 07:00 AM - 05:00 PM; Fri: 07:00 AM - 05:00 PM; Sat: 07:00 AM - 12:00 PM
Quality Implement Co. - Seymour,QIC SALES,(833) 565-1210,BRANDONT@QUALITYIMPLEMENT.COM,http://qualityimplement.com/,"19677 US Hwy. 82 EastSeymour, TX 76380",Sun: closed - closed; Mon: 07:00 AM - 05:00 PM; Tue: 07:00 AM - 05:00 PM; Wed: 07:00 AM - 05:00 PM; Thu: 07:00 AM - 05:00 PM; Fri: 07:00 AM - 05:00 PM; Sat: 07:00 AM - 12:00 PM
Quality Implement Co. - Brady,QIC SALES,(833) 595-1557,BRANDONT@QUALITYIMPLEMENT.COM,http://qualityimplement.com/,"800 San Angelo HighwayBrady, TX 76825",Sun: closed - closed; Mon: 07:30 AM - 05:00 PM; Tue: 07:30 AM - 05:00 PM; Wed: 07:30 AM - 05:00 PM; Thu: 07:30 AM - 05:00 PM; Fri: 07:30 AM - 05:00 PM; Sat: 07:30 AM - 12:00 PM
Quality Implement Co. - Burkburnett,QIC SALES,(833) 202-7890,BRANDONT@QUALITYIMPLEMENT.COM,http://qualityimplement.com/,"2112 S Red River ExpresswayBurkburnett, TX 76354",Sun: closed - closed; Mon: 07:30 AM - 05:00 PM; Tue: 07:30 AM - 05:00 PM; Wed: 07:30 AM - 05:00 PM; Thu: 07:30 AM - 05:00 PM; Fri: 07:30 AM - 05:00 PM; Sat: 07:30 AM - 12:00 PM
Quality Implement Co. - Coleman,QIC SALES,(833) 597-1021,BRANDONT@QUALITYIMPLEMENT.COM,http://qualityimplement.com/,"511 Santa Anna Ave.Coleman, TX 76834",Sun: closed - closed; Mon: 07:30 AM - 05:00 PM; Tue: 07:30 AM - 05:00 PM; Wed: 07:30 AM - 05:00 PM; Thu: 07:30 AM - 05:00 PM; Fri: 07:30 AM - 05:00 PM; Sat: 07:30 AM - 12:00 PM
Lester Equipment Company,Kinney Lester,(979) 314-3560,kinney@lesterequipment.com,http://www.lesterequipment.com,"5705 East State Highway 21Bryan, TX 77808",Sun: closed; Mon: closed; Tue: closed; Wed: closed; Thu: closed; Fri: closed; Sat: closed
"North Texas Tractor & Equipment, Inc. - Caddo Mills",Jason Mayfield,(972) 388-3470,jason@northtexastractor.com,https://www.northtexastractor.com/default.htm,"4011 West I -30Caddo Mills, TX 75135",Sun: closed - closed; Mon: 09:00 AM - 06:00 PM; Tue: 09:00 AM - 06:00 PM; Wed: 09:00 AM - 06:00 PM; Thu: 09:00 AM - 06:00 PM; Fri: 09:00 AM - 06:00 PM; Sat: 09:00 AM - 03:00 PM
Quality Implement Co. - Abilene,QIC  SALES,(833) 538-0792,BRANDONT@QUALITYIMPLEMENT.COM,http://qualityimplement.com/,"3526 S Treadaway Blvd.Abilene, TX 79602",Sun: closed - closed; Mon: 07:30 AM - 05:00 PM; Tue: 07:30 AM - 05:00 PM; Wed: 07:30 AM - 05:00 PM; Thu: 07:30 AM - 05:00 PM; Fri: 07:30 AM - 05:00 PM; Sat: 07:30 AM - 12:00 PM
"Lawson Implement Co., Inc. - Hamilton",Sales,(254) 870-6428,info@lawson-implement.com,http://www.lawson-implement.com/,"1130 S Hwy 281Hamilton, TX 76531",Sun: closed - closed; Mon: 08:00 AM - 05:00 PM; Tue: 08:00 AM - 05:00 PM; Wed: 08:00 AM - 05:00 PM; Thu: 08:00 AM - 05:00 PM; Fri: 08:00 AM - 05:00 PM; Sat: 08:00 AM - 12:00 PM
"Maxx Outdoor & Equipment, LLC - Weatherford",Sales Department,(817) 537-0052,v2_leads@dp360crm.com ,,"1226 Interstate 20Weatherford, TX 76086",Sun: closed - closed; Mon: 09:00 AM - 05:00 PM; Tue: 09:00 AM - 05:00 PM; Wed: 09:00 AM - 05:00 PM; Thu: 09:00 AM - 05:00 PM; Fri: 09:00 AM - 05:00 PM; Sat: 09:00 AM - 12:00 PM
"Lawson Implement Co., Inc. - Goldthwaite",Quin Hanson,,quin.hanson@lawson-implement.com,http://www.lawson-implement.com/,"190 Hwy. 84 WestGoldthwaite, TX 76844",Sun: closed - closed; Mon: 08:00 AM - 05:00 PM; Tue: 08:00 AM - 05:00 PM; Wed: 08:00 AM - 05:00 PM; Thu: 08:00 AM - 05:00 PM; Fri: 08:00 AM - 05:00 PM; Sat: 08:00 AM - 12:00 PM
Landmark Equipment - Irving,Sales Department,(972) 579-9999,bret.wesolek@landmarkeq.com,http://www.landmarkeq.com/,"1351 S Loop 12Irving, TX 75060",Sun: closed; Mon: 07:30 AM - 05:00 PM; Tue: 07:30 AM - 05:00 PM; Wed: 07:30 AM - 05:00 PM; Thu: 07:30 AM - 05:00 PM; Fri: 07:30 AM - 05:00 PM; Sat: closed
Jarvis Farming - Lufkin,Aaron Jarvis,(844) 741-0854,aaron@jarvisfarming.com,http://www.jarvisfarming.com/default.htm,"807 South Meford Drive.Lufkin, TX 75901",Sun: closed; Mon: closed; Tue: closed; Wed: closed; Thu: closed; Fri: closed; Sat: closed
Landmark Equipment - McKinney,Sales Department,(972) 548-9590,bret.wesolek@landmarkeq.com,http://www.landmarkeq.com/,"3774 N Central ExpresswayMcKinney, TX 75071",Sun: closed; Mon: 07:30 AM - 05:00 PM; Tue: 07:30 AM - 05:00 PM; Wed: 07:30 AM - 05:00 PM; Thu: 07:30 AM - 05:00 PM; Fri: 07:30 AM - 05:00 PM; Sat: 08:00 AM - 02:00 PM
Landmark Equipment - Waxahachie,Sales Department,(972) 937-0101,bret.wesolek@landmarkeq.com,http://www.landmarkeq.com/,"2200 W Highway 287 BusinessWaxahachie, TX 75167",Sun: closed; Mon: 07:30 AM - 05:00 PM; Tue: 07:30 AM - 05:00 PM; Wed: 07:30 AM - 05:00 PM; Thu: 07:30 AM - 05:00 PM; Fri: 07:30 AM - 05:00 PM; Sat: 08:00 AM - 02:00 PM
Hlavinka Equipment Company - Nome,Byron Hlavinka,,byron.hlavinka@hlavinka.com,http://www.hlavinka.com/,"2075 US 90Nome, TX 77629",Sun: closed; Mon: 08:00 AM - 05:00 PM; Tue: 08:00 AM - 05:00 PM; Wed: 08:00 AM - 05:00 PM; Thu: 08:00 AM - 05:00 PM; Fri: 08:00 AM - 05:00 PM; Sat: 08:00 AM - 12:00 PM
Hlavinka Equipment Company - Taft,Tom Taylor,(361) 528-2554,tom.taylor@hlavinka.com,http://www.hlavinka.com/,"418 KirkpatrickTaft, TX 78390",Sun: closed; Mon: 08:00 AM - 05:00 PM; Tue: 08:00 AM - 05:00 PM; Wed: 08:00 AM - 05:00 PM; Thu: 08:00 AM - 05:00 PM; Fri: 08:00 AM - 05:00 PM; Sat: 08:00 AM - 12:00 PM
K&W Equipment - Hale Center,Jason Campbell,,jcampbell3@outlook.com,http://www.kandwequipment.com,"401 Ave. JHale Center, TX 79041",Sun: closed; Mon: 08:00 AM - 05:00 PM; Tue: 08:00 AM - 05:00 PM; Wed: 08:00 AM - 05:00 PM; Thu: 08:00 AM - 05:00 PM; Fri: 08:00 AM - 05:00 PM; Sat: 08:00 AM - 12:00 PM
Hlavinka Equipment Company - Victoria,"Kermit Harton, Jr.",,kermit.harton@hlavinka.com,http://www.hlavinka.com/,"7105 US Highway 59NVictoria, TX 77905",Sun: closed; Mon: 08:00 AM - 05:00 PM; Tue: 08:00 AM - 05:00 PM; Wed: 08:00 AM - 05:00 PM; Thu: 08:00 AM - 05:00 PM; Fri: 08:00 AM - 05:00 PM; Sat: 08:00 AM - 12:00 PM
"Hurst Farm Supply, Inc. - Lorenzo",Stetson Willis,,randy@hurstfs.com,http://www.hurstfs.com/,"224 Hwy. 82 EastLorenzo, TX 79343",Sun: closed - closed; Mon: 08:00 AM - 05:00 PM; Tue: 08:00 AM - 05:00 PM; Wed: 08:00 AM - 05:00 PM; Thu: 08:00 AM - 05:00 PM; Fri: 08:00 AM - 05:00 PM; Sat: 08:00 AM - 12:00 PM
J & K Auction Service - Flint,Sales Department,(903) 825-2400,brandon@noondaytractorauction.com,http://www.jandksales.net/default.htm,"19090 Hwy 155 SouthFlint, TX 75762",Sun: closed; Mon: 08:00 AM - 05:00 PM; Tue: 08:00 AM - 05:00 PM; Wed: 08:00 AM - 05:00 PM; Thu: 08:00 AM - 05:00 PM; Fri: 08:00 AM - 05:00 PM; Sat: 08:00 AM - 12:00 PM
Cornett Equipment - Lubbock,Tyler Cornett,(806) 576-2790,tyler@cornettequip.com,http://www.cornettequip.com,"2519 Loyola St.Lubbock, TX 79415",Sun: closed; Mon: closed; Tue: closed; Wed: closed; Thu: closed; Fri: closed; Sat: closed
Hlavinka Equipment Company - East Bernard,Lance Potts,,lance.potts@hlavinka.com,http://www.hlavinka.com/,"17405 Hwy. 90AEast Bernard, TX 77435",Sun: closed; Mon: 08:00 AM - 05:00 PM; Tue: 08:00 AM - 05:00 PM; Wed: 08:00 AM - 05:00 PM; Thu: 08:00 AM - 05:00 PM; Fri: 08:00 AM - 05:00 PM; Sat: 08:00 AM - 12:00 PM
