Title,Contact,Phone,Email,Website,Address,Hours,URL
TriGreen Equipment  - Scottsboro,Sales Department,(256) 487-7068,bryanbarton@trigreen.com,http://www.trigreenequipment.com/,"26685 John T. Reid Pkwy.Scottsboro, AL 35768",Sun: closed; Mon: 07:00 AM - 05:00 PM; Tue: 07:00 AM - 05:00 PM; Wed: 07:00 AM - 05:00 PM; Thu: 07:00 AM - 05:00 PM; Fri: 07:00 AM - 05:00 PM; Sat: 07:00 AM - 12:00 PM,https://www.machinerypete.com/store/trigreen-equipment-scottsboro
Western Equipment - Woodward,Sales Department,(580) 297-7049,sales@west-equip.com,https://west-equip.com,"3999 Lakeview Dr.Woodward, OK 73801",Sun: closed - closed; Mon: 08:00 AM - 05:00 PM; Tue: 08:00 AM - 05:00 PM; Wed: 08:00 AM - 05:00 PM; Thu: 08:00 AM - 05:00 PM; Fri: 08:00 AM - 05:00 PM; Sat: 08:00 AM - 12:00 PM,https://www.machinerypete.com/store/western-equipment-woodward
Zimmerman Farms - Romulus,Durrell Zimmerman,,zimmermanfarms@emypeople.net,,"5001 Kings Corners RoadRomulus, NY 14541",Sun: closed; Mon: 08:00 AM - 05:00 PM; Tue: 08:00 AM - 05:00 PM; Wed: 08:00 AM - 05:00 PM; Thu: 08:00 AM - 05:00 PM; Fri: 08:00 AM - 05:00 PM; Sat: 08:00 AM - 12:00 PM,https://www.machinerypete.com/store/zimmerman-farms-romulus
Vause Equipment - Fayetteville,Lora,(910) 483-7165,info@vauseequipment.com,http://vauseequipment.com,"1013 Gillespie StreetFayetteville, NC 28306",Sun: closed - closed; Mon: 08:00 AM - 05:00 PM; Tue: 08:00 AM - 05:00 PM; Wed: 08:00 AM - 05:00 PM; Thu: 08:00 AM - 05:00 PM; Fri: 08:00 AM - 05:00 PM; Sat: 08:00 AM - 12:00 PM,https://www.machinerypete.com/store/vause-equipment-fayetteville
"Zimmerman Farm Service, Inc. - Bethel",Sales Department,(717) 373-1575,jay@zimmermanfarmservice.com,http://www.zimmermanfarmservice.com,"180 School RoadBethel, PA 19507",Sun: closed - closed; Mon: 07:00 AM - 06:00 PM; Tue: 07:00 AM - 06:00 PM; Wed: 07:00 AM - 06:00 PM; Thu: 07:00 AM - 06:00 PM; Fri: 07:00 AM - 06:00 PM; Sat: 07:00 AM - 02:00 PM,https://www.machinerypete.com/store/zimmerman-farm-service-inc-bethel
"Mid-State Equipment Co., Inc.",Contact Sales Department,(844) 329-2903,rentals@midstateequip.com,https://midstateequip.com,"63 NJ-31Pennington, NJ 08534",Sun: closed - closed; Mon: 07:30 AM - 05:00 PM; Tue: 07:30 AM - 05:00 PM; Wed: 07:30 AM - 05:00 PM; Thu: 07:30 AM - 05:00 PM; Fri: 07:30 AM - 05:00 PM; Sat: 09:00 AM - 01:00 PM,https://www.machinerypete.com/store/mid-state-equipment-co-inc
Western Equipment - Clovis,Sales Department,(575) 218-7674,sales@west-equip.com,https://west-equip.com,"5800 Mabry DriveClovis, NM 88101",Sun: closed - closed; Mon: 08:00 AM - 05:00 PM; Tue: 08:00 AM - 05:00 PM; Wed: 08:00 AM - 05:00 PM; Thu: 08:00 AM - 05:00 PM; Fri: 08:00 AM - 05:00 PM; Sat: 08:00 AM - 12:00 PM,https://www.machinerypete.com/store/western-equipment-clovis
Wise Bros. Inc. - Kingdom City,Harrison Backer,(573) 642-6395,wisebrothersequipment@gmail.com,https://www.wisebrosinc.com,"3361 Old US HighwayKingdom City, MO 65262",Sun: closed; Mon: 09:00 AM - 05:00 PM; Tue: 09:00 AM - 05:00 PM; Wed: 09:00 AM - 05:00 PM; Thu: 09:00 AM - 05:00 PM; Fri: 09:00 AM - 05:00 PM; Sat: closed,https://www.machinerypete.com/store/wise-bros-inc-kingdom-city
Zimmer Tractor - Monroe,Sales Department,(513) 539-0539,,https://www.zimmertractor.com/,"461 Breaden DrMonroe, OH 45050",Sun: closed; Mon: 07:30 AM - 05:00 PM; Tue: 07:30 AM - 05:00 PM; Wed: 07:30 AM - 05:00 PM; Thu: 07:30 AM - 05:00 PM; Fri: 07:30 AM - 05:00 PM; Sat: 07:30 AM - 12:30 PM,https://www.machinerypete.com/store/zimmer-tractor-monroe
AKRS Equipment - Spalding,Sales Department,(402) 227-3598,mstracke@akrs.com,https://www.akrs.com/,"North Mill StreetSpalding, NE 68665",Sun: closed; Mon: 08:00 AM - 05:00 PM; Tue: 08:00 AM - 05:00 PM; Wed: 08:00 AM - 05:00 PM; Thu: 08:00 AM - 05:00 PM; Fri: 08:00 AM - 05:00 PM; Sat: 08:00 AM - 12:00 PM,https://www.machinerypete.com/store/akrs-equipment-spalding
Tractor & Equipment Co. - Helena,Customer Service Specialist,(833) 922-1024,aginfo@tractorandequipment.com,http://www.tractorandequipment.com,"3598 Centennial DriveHelena, MT 59601",Sun: closed - closed; Mon: 08:00 AM - 05:00 PM; Tue: 08:00 AM - 05:00 PM; Wed: 08:00 AM - 05:00 PM; Thu: 08:00 AM - 05:00 PM; Fri: 08:00 AM - 05:00 PM; Sat: closed - closed,https://www.machinerypete.com/store/tractor-equipment-co-helena
West River Equipment - Mandan,Jeremy Or Delvin,(701) 401-9371,sales@westriverequipment.com,https://www.westriverequipment.com/,"1417 39th AveMandan, ND 58544",Sun: closed - closed; Mon: 08:00 AM - 05:00 PM; Tue: 08:00 AM - 05:00 PM; Wed: 08:00 AM - 05:00 PM; Thu: 08:00 AM - 05:00 PM; Fri: 08:00 AM - 05:00 PM; Sat: 08:00 AM - 02:00 PM,https://www.machinerypete.com/store/west-river-equipment-mandan
United Ag & Turf - Pembroke,Kyle Simard,(603) 226-2188,pembroke@UATNE.COM,https://www.unitedagandturf.com,"149 Sheep Davis Rd.Pembroke, NH 03275",Sun: closed; Mon: 08:00 AM - 05:00 PM; Tue: 08:00 AM - 05:00 PM; Wed: 08:00 AM - 05:00 PM; Thu: 08:00 AM - 05:00 PM; Fri: 08:00 AM - 05:00 PM; Sat: 08:00 AM - 12:00 PM,https://www.machinerypete.com/store/united-ag-turf-pembroke
"Wade, Inc. - Vardaman",Shawn  Snellings,,ssnellings@wadeincorporated.com,http://wadeincorporated.com/,"463 Hwy. 8Vardaman, MS 38878",Sun: closed - closed; Mon: 08:00 AM - 05:00 PM; Tue: 08:00 AM - 05:00 PM; Wed: 08:00 AM - 05:00 PM; Thu: 08:00 AM - 05:00 PM; Fri: 08:00 AM - 05:00 PM; Sat: 08:00 AM - 12:00 PM,https://www.machinerypete.com/store/wade-inc-vardaman
Titan Machinery - Gillette,Sales Department,(855) 688-4826,leadmanagement@titanmachinery.com,http://www.titanmachinery.com,"4802 S Garner Lake RoadGillette, WY 82718",Sun: closed; Mon: 08:00 AM - 05:00 PM; Tue: 08:00 AM - 05:00 PM; Wed: 08:00 AM - 05:00 PM; Thu: 08:00 AM - 05:00 PM; Fri: 08:00 AM - 05:00 PM; Sat: 08:00 AM - 12:00 PM,https://www.machinerypete.com/store/titan-machinery-gillette
Tri-County Equipment - La Grande,Tyson Stebbins,,tstebbins@wcgg.biz,https://www.tri-countyequipment.com/,"62460 Commerce RoadLa Grande, OR 97850",Sun: closed - closed; Mon: 08:00 AM - 05:00 PM; Tue: 08:00 AM - 05:00 PM; Wed: 08:00 AM - 05:00 PM; Thu: 08:00 AM - 05:00 PM; Fri: 08:00 AM - 05:00 PM; Sat: 08:00 AM - 12:00 PM,https://www.machinerypete.com/store/tri-county-equipment-la-grande
"Wade, Inc. - Tunica",Jeff Horn,,jhorn@wadeinc.com,http://www.wadeincorporated.com,"1626 Highway 61 NTunica, MS 38676",Sun: closed; Mon: 07:00 AM - 05:00 PM; Tue: 07:00 AM - 05:00 PM; Wed: 07:00 AM - 05:00 PM; Thu: 07:00 AM - 05:00 PM; Fri: 07:00 AM - 05:00 PM; Sat: 07:00 AM - 12:00 PM,https://www.machinerypete.com/store/wade-inc-tunica
"Werner Implement Co., Inc - Vermillion",Sales Department,(651) 571-4642,kelly@wernerimplement.com,http://www.wernerimplement.com/,"119 Main Street EastVermillion, MN 55085",Sun: closed - closed; Mon: 08:00 AM - 05:30 PM; Tue: 08:00 AM - 05:30 PM; Wed: 08:00 AM - 05:30 PM; Thu: 08:00 AM - 05:30 PM; Fri: 08:00 AM - 05:30 PM; Sat: 08:00 AM - 12:00 PM,https://www.machinerypete.com/store/werner-implement-co-inc-vermillion
Westbrook Ag Power - Westbrook ,Lincoln  Simonson,,sales@westbrookagpower.com,http://www.westbrookagpower.com,"31424 State Highway 30 Westbrook, MN 56183",Sun: closed; Mon: 08:00 AM - 05:00 PM; Tue: 08:00 AM - 05:00 PM; Wed: 08:00 AM - 05:00 PM; Thu: 08:00 AM - 05:00 PM; Fri: 08:00 AM - 05:00 PM; Sat: 08:00 AM - 12:00 PM,https://www.machinerypete.com/store/westbrook-ag-power-westbrook
Weltsch Equipment-Redwood Falls,Richard Weltsch,,wei@weltsch,http://weltsch.com,"1615 E. Bridge StRedwood Falls, MN 56283",Sun: closed; Mon: 08:00 AM - 05:30 PM; Tue: 08:00 AM - 05:30 PM; Wed: 08:00 AM - 05:30 PM; Thu: 08:00 AM - 05:30 PM; Fri: 08:00 AM - 05:30 PM; Sat: closed,https://www.machinerypete.com/store/weltsch-equipment-redwood-falls
US Equipment Sales - Brainerd,Craig Erpelding,(218) 736-9373,craig@usequipmentsalesmn.com,https://www.usequipmentbroker.com/default.htm,"5782 Gorron Rd.Brainerd, MN 56401",Sun: closed - closed; Mon: 08:00 AM - 05:00 PM; Tue: 08:00 AM - 05:00 PM; Wed: 08:00 AM - 05:00 PM; Thu: 08:00 AM - 05:00 PM; Fri: 08:00 AM - 05:00 PM; Sat: 08:00 AM - 05:00 PM,https://www.machinerypete.com/store/us-equipment-sales-brainerd
Valley Plains Equipment - Crookston,Sales Dept.,(218) 217-0251,araap@valleyplainsequipment.com,http://www.valleyplainsequipment.com/valley-plains-equipment,"723 3rd Avenue SWCrookston, MN 56716",Sun: closed - closed; Mon: 07:30 AM - 05:30 PM; Tue: 07:30 AM - 05:30 PM; Wed: 07:30 AM - 05:30 PM; Thu: 07:30 AM - 05:30 PM; Fri: 07:30 AM - 05:30 PM; Sat: 08:00 AM - 12:00 PM,https://www.machinerypete.com/store/valley-plains-equipment-crookston
True North Equipment - Mahnomen,Salesman,(218) 366-8806,Onlinesales@truenorthequipment.com,https://www.truenorthequipment.com/,"300 US Hwy. 59Mahnomen, MN 56557",Sun: closed - closed; Mon: 07:30 AM - 05:30 PM; Tue: 07:30 AM - 05:30 PM; Wed: 07:00 AM - 05:30 PM; Thu: 07:30 AM - 05:30 PM; Fri: 07:30 AM - 05:30 PM; Sat: 08:00 AM - 02:00 PM,https://www.machinerypete.com/store/true-north-equipment-mahnomen
True North Equipment. - Warren,Salesman,(218) 366-8786,Onlinesales@truenorthequipment.com,https://www.truenorthequipment.com/,"605 South MainWarren, MN 56762",Sun: closed - closed; Mon: 08:00 AM - 05:00 PM; Tue: 08:00 AM - 05:00 PM; Wed: 08:00 AM - 05:00 PM; Thu: 08:00 AM - 05:00 PM; Fri: 08:00 AM - 05:00 PM; Sat: 08:00 AM - 12:00 PM,https://www.machinerypete.com/store/true-north-equipment-warren
True North Equipment - Baudette,Salesman,(218) 228-3121,Onlinesales@truenorthequipment.com,https://www.truenorthequipment.com/,"302 Main St. EBaudette, MN 56623",Sun: closed - closed; Mon: 08:00 AM - 05:00 PM; Tue: 08:00 AM - 05:00 PM; Wed: 08:00 AM - 05:00 PM; Thu: 08:00 AM - 05:00 PM; Fri: 08:00 AM - 05:00 PM; Sat: 08:00 AM - 12:00 PM,https://www.machinerypete.com/store/true-north-equipment-baudette
True North Equipment. - Thief River Falls,Salesman,(218) 292-1697,Onlinesales@truenorthequipment.com,https://www.truenorthequipment.com/,"1820 State Hwy. 1 NEThief River Falls, MN 56701",Sun: closed - closed; Mon: 08:00 AM - 05:00 PM; Tue: 08:00 AM - 05:00 PM; Wed: 08:00 AM - 05:00 PM; Thu: 08:00 AM - 05:00 PM; Fri: 08:00 AM - 05:00 PM; Sat: 08:00 AM - 12:00 PM,https://www.machinerypete.com/store/true-north-equipment-thief-river-falls
True North Equipment - Kennedy,Salesman,(218) 228-0430,Onlinesales@truenorthequipment.com,http://www.truenorthequipment.com/,"1460 Hwy. 75 SouthKennedy, MN 56733",Sun: closed - closed; Mon: 07:30 AM - 05:30 PM; Tue: 07:30 AM - 05:30 PM; Wed: 07:30 AM - 05:30 PM; Thu: 07:30 AM - 05:30 PM; Fri: 07:30 AM - 05:30 PM; Sat: 08:00 AM - 12:00 PM,https://www.machinerypete.com/store/true-north-equipment-kennedy
Titan Machinery - Winger,Sales Department,(855) 688-4826,leadmanagement@titanmachinery.com,http://www.titanmachinery.com/,"207 S Borud St.Winger, MN 56592",Sun: closed - closed; Mon: 08:00 AM - 05:30 PM; Tue: 08:00 AM - 05:30 PM; Wed: 08:00 AM - 05:30 PM; Thu: 08:00 AM - 05:30 PM; Fri: 08:00 AM - 05:30 PM; Sat: 09:00 AM - 01:00 PM,https://www.machinerypete.com/store/titan-machinery-winger
"Tjosvold Equipment, Inc. - Granite Falls",Jon Tjosvold,(320) 564-2331,tjos@earthlink.net,https://www.tjosvoldequip.com/contact.htm,"5352 285th Ave.Granite Falls, MN 56241",Sun: closed; Mon: 07:30 AM - 05:30 PM; Tue: 07:30 AM - 05:30 PM; Wed: 07:30 AM - 05:30 PM; Thu: 07:30 AM - 05:30 PM; Fri: 07:30 AM - 05:30 PM; Sat: 07:30 AM - 11:30 AM,https://www.machinerypete.com/store/tjosvold-equipment-inc-granite-falls
Troy Gillespie Tractors - Elbow Lake,Troy Gillespie,,troy.gillespie2@gmail.com,,"P.O. Box 233Elbow Lake , MN 56531",Sun: closed; Mon: 08:00 AM - 05:00 PM; Tue: 08:00 AM - 05:00 PM; Wed: 08:00 AM - 05:00 PM; Thu: 08:00 AM - 05:00 PM; Fri: 08:00 AM - 05:00 PM; Sat: 08:00 AM - 12:00 PM,https://www.machinerypete.com/store/troy-gillespie-tractors-elbow-lake
Trueman-Welters Tractor & Equipment - Buffalo,Sales,(763) 682-2200,paul@welters.net,https://www.trueman-welterstractor.com/index.htm,"1600 Hwy 55 EastBuffalo, MN 55313",Sun: closed - closed; Mon: 08:00 AM - 05:30 PM; Tue: 08:00 AM - 05:30 PM; Wed: 08:00 AM - 05:30 PM; Thu: 08:00 AM - 07:00 PM; Fri: 08:00 AM - 05:30 PM; Sat: 08:00 AM - 04:00 PM,https://www.machinerypete.com/store/trueman-welters-tractor-equipment-buffalo
Titan Machinery - Rogers,Sales Department,(855) 688-4826,leadmanagement@titanmachinery.com,http://www.titanmachinery.com,"14375 James RoadRogers, MN 55374",Sun: closed; Mon: 08:00 AM - 05:00 PM; Tue: 08:00 AM - 05:00 PM; Wed: 08:00 AM - 05:00 PM; Thu: 08:00 AM - 05:00 PM; Fri: 08:00 AM - 05:00 PM; Sat: 08:00 AM - 12:00 PM,https://www.machinerypete.com/store/titan-machinery-rogers
Titan Machinery - Shakopee,Sales Department,(855) 688-4826,leadmanagement@titanmachinery.com,http://www.titanmachinery.com,"6340 County Road 101 EastShakopee, MN 55379",Sun: closed; Mon: 08:00 AM - 05:00 PM; Tue: 08:00 AM - 05:00 PM; Wed: 08:00 AM - 05:00 PM; Thu: 08:00 AM - 05:00 PM; Fri: 08:00 AM - 05:00 PM; Sat: 08:00 AM - 12:00 PM,https://www.machinerypete.com/store/titan-machinery-shakopee
Titan Machinery - Pipestone,Sales Department,(855) 688-4826,leadmanagement@titanmachinery.com,http://www.titanmachinery.com/,"1402 Highway 75 SPipestone, MN 56164",Sun: closed - closed; Mon: 07:30 AM - 05:30 PM; Tue: 07:30 AM - 05:30 PM; Wed: 07:30 AM - 05:30 PM; Thu: 07:30 AM - 05:30 PM; Fri: 07:30 AM - 05:30 PM; Sat: 07:30 AM - 12:00 PM,https://www.machinerypete.com/store/titan-machinery-pipestone
Titan Machinery - Roseau,Sales Department,(855) 688-4826,leadmanagement@titanmachinery.com,http://www.titanmachinery.com/,"1118 3rd Street NWRoseau, MN 56751",Sun: 10:00 AM - 04:00 PM; Mon: 07:00 AM - 07:00 PM; Tue: 07:00 AM - 07:00 PM; Wed: 07:00 AM - 07:00 PM; Thu: 07:00 AM - 07:00 PM; Fri: 07:00 AM - 07:00 PM; Sat: 07:00 AM - 06:00 PM,https://www.machinerypete.com/store/titan-machinery-roseau
Titan Machinery - Marshall,Sales Department,(855) 688-4826,leadmanagement@titanmachinery.com,http://www.titanmachinery.com/,"1201 North Highway 59Marshall, MN 56258",Sun: closed - closed; Mon: 08:00 AM - 05:00 PM; Tue: 08:00 AM - 05:00 PM; Wed: 08:00 AM - 05:00 PM; Thu: 08:00 AM - 05:00 PM; Fri: 08:00 AM - 05:00 PM; Sat: 08:00 AM - 12:00 PM,https://www.machinerypete.com/store/titan-machinery-marshall
Titan Machinery - Glyndon,Sales Department,(855) 688-4826,leadmanagement@titanmachinery.com,http://www.titanmachinery.com/,"3314 70th Street SoGlyndon, MN 56547",Sun: closed - closed; Mon: 07:00 AM - 06:00 PM; Tue: 07:00 AM - 06:00 PM; Wed: 07:00 AM - 06:00 PM; Thu: 07:00 AM - 06:00 PM; Fri: 07:00 AM - 06:00 PM; Sat: 08:00 AM - 12:00 PM,https://www.machinerypete.com/store/titan-machinery-glyndon
Titan Machinery - Moorhead,Sales Department,(855) 688-4826,leadmanagement@titanmachinery.com,http://www.titanmachinery.com/,"I-94 and Co. Rd. 11Moorhead, MN 56561",Sun: closed - closed; Mon: 08:00 AM - 05:00 PM; Tue: 08:00 AM - 05:00 PM; Wed: 08:00 AM - 05:00 PM; Thu: 08:00 AM - 05:00 PM; Fri: 08:00 AM - 05:00 PM; Sat: 08:00 AM - 12:00 PM,https://www.machinerypete.com/store/titan-machinery-moorhead
Titan Machinery - Duluth,Sales Department,(855) 688-4826,leadmanagement@titanmachinery.com,http://www.titanmachinery.com,"4311 Haines RoadHermantown, MN 55811",Sun: closed; Mon: 08:00 AM - 05:00 PM; Tue: 08:00 AM - 05:00 PM; Wed: 08:00 AM - 05:00 PM; Thu: 08:00 AM - 05:00 PM; Fri: 08:00 AM - 05:00 PM; Sat: 08:00 AM - 12:00 PM,https://www.machinerypete.com/store/titan-machinery-duluth
Titan Machinery - Graceville,Sales Department,(855) 688-4826,leadmanagement@titanmachinery.com,http://www.titanmachinery.com/,"315 Hwy. 28Graceville, MN 56240",Sun: closed; Mon: 08:00 AM - 05:00 PM; Tue: 08:00 AM - 05:00 PM; Wed: 08:00 AM - 05:00 PM; Thu: 08:00 AM - 05:00 PM; Fri: 08:00 AM - 05:00 PM; Sat: 08:00 AM - 12:00 PM,https://www.machinerypete.com/store/titan-machinery-graceville
TC Agri Sales (Wheaton),Tom,(320) 815-9971,tom@tcagrisales.com,https://www.tcagrisales.com/default.htm,"6708 County Road 14Wheaton, MN 56296",Sun: closed; Mon: 08:00 AM - 05:00 PM; Tue: 08:00 AM - 05:00 PM; Wed: 08:00 AM - 05:00 PM; Thu: 08:00 AM - 05:00 PM; Fri: 08:00 AM - 05:00 PM; Sat: closed,https://www.machinerypete.com/store/tc-agri-sales-wheaton
Titan Machinery - Elbow Lake,Sales Department,(855) 688-4826,leadmanagement@titanmachinery.com,http://www.titanmachinery.com/,"27062 U.S. Highway 59Elbow Lake, MN 56531",Sun: closed; Mon: 08:00 AM - 05:00 PM; Tue: 08:00 AM - 05:00 PM; Wed: 08:00 AM - 05:00 PM; Thu: 08:00 AM - 05:00 PM; Fri: 08:00 AM - 05:00 PM; Sat: 08:00 AM - 12:00 PM,https://www.machinerypete.com/store/titan-machinery-elbow-lake
Titan Machinery - Crookston,Sales Department,(855) 688-4826,leadmanagement@titanmachinery.com,http://www.titanmachinery.com/,"500 Ingersoll Ave.Crookston, MN 56716",Sun: closed; Mon: 06:30 AM - 05:30 PM; Tue: 06:30 AM - 05:30 PM; Wed: 06:30 AM - 05:30 PM; Thu: 06:30 AM - 05:30 PM; Fri: 06:30 AM - 05:30 PM; Sat: 08:00 AM - 12:00 PM,https://www.machinerypete.com/store/titan-machinery-crookston
Titan Machinery - Ada,Sales Department,(855) 688-4826,leadmanagement@titanmachinery.com,http://www.titanmachinery.com/,"2491 State Highway 200Ada, MN 56510",Sun: closed; Mon: 08:00 AM - 05:00 PM; Tue: 08:00 AM - 05:00 PM; Wed: 08:00 AM - 05:00 PM; Thu: 08:00 AM - 05:00 PM; Fri: 08:00 AM - 05:00 PM; Sat: 08:00 AM - 12:00 PM,https://www.machinerypete.com/store/titan-machinery-ada
"Star Trailer Sales, Inc. - North Mankato",Sales Department,(507) 625-2234,jake.stock@startrailer.com,http://startrailer.com/default.aspx,"1120 Center StreetNorth Mankato, MN 56003",Sun: closed; Mon: 08:00 AM - 05:00 PM; Tue: 08:00 AM - 05:00 PM; Wed: 08:00 AM - 05:00 PM; Thu: 08:00 AM - 05:00 PM; Fri: 08:00 AM - 05:00 PM; Sat: 08:00 AM - 12:30 PM,https://www.machinerypete.com/store/star-trailer-sales-inc-north-mankato
Story Sales & Service - Faribault,Rick Story,,info@storysalesandservice.com,http://www.storysalesandservice.com,"20012 Jacobs Ave.Faribault, MN 55021",Sun: closed; Mon: 08:00 AM - 05:00 PM; Tue: 08:00 AM - 05:00 PM; Wed: 08:00 AM - 05:00 PM; Thu: 08:00 AM - 05:00 PM; Fri: 08:00 AM - 05:00 PM; Sat: 08:00 AM - 12:00 PM,https://www.machinerypete.com/store/story-sales-service-faribault
Titan Machinery - Fergus Falls,Sales Department,(855) 688-4826,leadmanagement@titanmachinery.com,http://www.titanmachinery.com/,"2096 College WayFergus Falls, MN 56537",Sun: closed; Mon: 07:00 AM - 05:00 PM; Tue: 07:00 AM - 05:00 PM; Wed: 07:00 AM - 05:00 PM; Thu: 07:00 AM - 05:00 PM; Fri: 07:00 AM - 05:00 PM; Sat: 08:00 AM - 12:00 PM,https://www.machinerypete.com/store/titan-machinery-fergus-falls
"SEMA Equipment, Inc. - Wanamingo",Equipment Sales,(844) 477-2527,tmikulecky@semaequip.com,http://www.semaequip.com/,"11555 Highway 60 Blvd.Wanamingo, MN 55983",Sun: closed; Mon: 07:30 AM - 05:30 PM; Tue: 07:30 AM - 05:30 PM; Wed: 07:30 AM - 05:30 PM; Thu: 07:30 AM - 05:30 PM; Fri: 07:30 AM - 05:30 PM; Sat: 07:30 AM - 12:00 PM,https://www.machinerypete.com/store/sema-equipment-inc-wanamingo
St. Joseph Equipment Inc. - Eyota,Brad Murphy,,brad.murphy@stjosephequipment.com,www.stjosephequipment.com,"4710 County Road 7 SEEyota, MN 55934",Sun: closed - closed; Mon: 07:30 AM - 05:00 PM; Tue: 07:30 AM - 05:00 PM; Wed: 07:30 AM - 05:00 PM; Thu: 07:30 AM - 05:00 PM; Fri: 07:30 AM - 05:00 PM; Sat: 07:30 AM - 12:00 PM,https://www.machinerypete.com/store/st-joseph-equipment-inc-eyota
"SEMA Equipment, Inc. - Plainview",Equipment Sales,(855) 637-5528,tmikulecky@semaequip.com,http://www.semaequip.com/,"55083 County Road 4Plainview, MN 55964",Sun: closed; Mon: 07:30 AM - 05:30 PM; Tue: 07:30 AM - 05:30 PM; Wed: 07:30 AM - 05:30 PM; Thu: 07:30 AM - 05:30 PM; Fri: 07:30 AM - 05:30 PM; Sat: 07:30 AM - 12:00 PM,https://www.machinerypete.com/store/sema-equipment-inc-plainview
Sterling Equipment & Repair,Joy Kesteloot,,joy@sterlingequipmentinc.com,http://www.sterlingequipmentinc.com/,"235 East 4th StreetCottonwood, MN 56229",Sun: closed - closed; Mon: 08:00 AM - 05:00 PM; Tue: 08:00 AM - 05:00 PM; Wed: 08:00 AM - 05:00 PM; Thu: 08:00 AM - 05:00 PM; Fri: 08:00 AM - 05:00 PM; Sat: 08:00 AM - 12:00 PM,https://www.machinerypete.com/store/sterling-equipment-repair
"Ritter Ag, Inc. - Trimont",Mike Ritter,(507) 581-8908,	neritter@frontiernet.net,http://ritteragriculture.com/,"460 Minnesota 4Trimont, MN 56176",Sun: closed; Mon: 08:00 AM - 05:00 PM; Tue: 08:00 AM - 05:00 PM; Wed: 08:00 AM - 05:00 PM; Thu: 08:00 AM - 05:00 PM; Fri: 08:00 AM - 05:00 PM; Sat: 08:00 AM - 12:30 PM,https://www.machinerypete.com/store/ritter-ag-inc-trimont
"SEMA Equipment, Inc. - Caledonia",Equipment Sales,(844) 204-7354,tmikulecky@semaequip.com,http://www.semaequip.com/,"201 N Highway 44/76Caledonia, MN 55921",Sun: closed; Mon: 07:30 AM - 05:30 PM; Tue: 07:30 AM - 05:30 PM; Wed: 07:30 AM - 05:30 PM; Thu: 07:30 AM - 05:30 PM; Fri: 07:30 AM - 05:30 PM; Sat: 07:30 AM - 12:00 PM,https://www.machinerypete.com/store/sema-equipment-inc-caledonia
"SEMA Equipment, Inc. - Grand Meadow",Equipment Sales,(844) 715-7470,tmikulecky@semaequip.com,http://www.semaequip.com/,"505 4th Ave NEGrand Meadow, MN 55936",Sun: closed; Mon: 07:30 AM - 05:30 PM; Tue: 07:30 AM - 05:30 PM; Wed: 07:30 AM - 05:30 PM; Thu: 07:30 AM - 05:30 PM; Fri: 07:30 AM - 05:30 PM; Sat: 07:30 AM - 12:00 PM,https://www.machinerypete.com/store/sema-equipment-inc-grand-meadow
"SEMA Equipment, Inc. - St. Charles",Equipment Sales,(855) 776-1471,tmikulecky@semaequip.com,http://www.semaequip.com/,"11906 Hwy. 14 EastSt. Charles, MN 55972",Sun: closed; Mon: 07:30 AM - 05:30 PM; Tue: 07:30 AM - 05:30 PM; Wed: 07:30 AM - 05:30 PM; Thu: 07:30 AM - 05:30 PM; Fri: 07:30 AM - 05:30 PM; Sat: 07:30 AM - 12:00 PM,https://www.machinerypete.com/store/sema-equipment-inc-st-charles
"SEMA Equipment, Inc. - Northfield",Equipment Sales,(844) 402-2253,tmikulecky@semaequip.com,http://www.semaequip.com/,"32980 Northfield Blvd.Northfield, MN 55057",Sun: closed; Mon: 07:30 AM - 05:30 PM; Tue: 07:30 AM - 05:30 PM; Wed: 07:30 AM - 05:30 PM; Thu: 07:30 AM - 05:30 PM; Fri: 07:30 AM - 05:30 PM; Sat: 07:30 AM - 12:00 PM,https://www.machinerypete.com/store/sema-equipment-inc-northfield
RDO Equipment Co. - Fergus Falls,Used Ag Sales Department,(833) 956-8626,UsedAGSalesMP@rdoequipment.com,http://www.rdoequipment.com/,"21207 Co. Hwy. #1Fergus Falls, MN 56537",Sun: closed; Mon: 07:30 AM - 05:30 PM; Tue: 07:30 AM - 05:30 PM; Wed: 07:30 AM - 05:30 PM; Thu: 07:30 AM - 05:30 PM; Fri: 07:30 AM - 05:30 PM; Sat: 08:00 AM - 12:00 PM,https://www.machinerypete.com/store/rdo-equipment-co-fergus-falls
OK Enterprises - Mt. Lake,Orvil Klassen,(507) 267-3849,oklassen@frontier.com,http://www.ok-enterprise.com,"42733 570th AveMt Lake, MN 56159",Sun: closed - closed; Mon: 07:00 AM - 05:00 PM; Tue: 07:00 AM - 05:00 PM; Wed: 07:00 AM - 05:00 PM; Thu: 07:00 AM - 05:00 PM; Fri: 07:00 AM - 05:00 PM; Sat: 08:00 AM - 12:00 PM,https://www.machinerypete.com/store/ok-enterprises-mt-lake
RDO Equipment Co. - Moorhead,Used Ag Sales Department,(844) 859-9338,UsedAGSalesMP@rdoequipment.com,http://www.rdoequipment.com/,"2900 Main Ave. SEMoorhead, MN 56560",Sun: closed; Mon: 07:30 AM - 05:30 PM; Tue: 07:30 AM - 05:30 PM; Wed: 07:30 AM - 05:30 PM; Thu: 07:30 AM - 05:30 PM; Fri: 07:30 AM - 05:30 PM; Sat: 08:00 AM - 12:00 PM,https://www.machinerypete.com/store/rdo-equipment-co-moorhead
Red Horizon Equipment - Glenwood,Jason Messer,,jason@redhorizonequipment.com,https://www.redhorizonequip.com/rh_equip,"21915 160th StreetGlenwood, MN 56334",Sun: closed; Mon: 08:00 AM - 05:00 PM; Tue: 08:00 AM - 05:00 PM; Wed: 08:00 AM - 05:00 PM; Thu: 08:00 AM - 05:00 PM; Fri: 08:00 AM - 05:00 PM; Sat: 08:00 AM - 12:00 PM,https://www.machinerypete.com/store/red-horizon-equipment-glenwood
"Nick Gerdes Equipment - Jordan, MN",Nick Gerdes,,farmhand4020@yahoo.com,,"21676 Aberdeen AveJordan, MN 55352",Sun: closed; Mon: closed; Tue: closed; Wed: closed; Thu: closed; Fri: closed; Sat: closed,https://www.machinerypete.com/store/nick-gerdes-equipment-jordan-mn
MS-Diversified - Fairfax,Monte Sandifer,,monte@ms-diversified.com,http://www.ms-diversified.com,"71701 440th St.Fairfax, MN 55332",Sun: closed; Mon: 08:00 AM - 05:00 PM; Tue: 08:00 AM - 05:00 PM; Wed: 08:00 AM - 05:00 PM; Thu: 08:00 AM - 05:00 PM; Fri: 08:00 AM - 05:00 PM; Sat: 08:00 AM - 12:00 PM,https://www.machinerypete.com/store/ms-diversified-fairfax
MN Ag Shortline,Sean McMahon,(507) 427-3202,sales@balzerinc.com,https://balzerinc.com,"2309 3rd Ave.Mountain Lake, MN 56159",Sun: closed - closed; Mon: 06:30 AM - 03:00 PM; Tue: 06:30 AM - 03:00 PM; Wed: 06:30 AM - 03:00 PM; Thu: 06:30 AM - 03:00 PM; Fri: 06:30 AM - 03:00 PM; Sat: closed - closed,https://www.machinerypete.com/store/mn-ag-shortline
Northland Farm Systems - Owatonna,Sales,(844) 975-4184,kelly@northlandfs.com,https://www.northlandfarmsystems.com,"2250 Austin RoadOwatonna, MN 55060",Sun: closed; Mon: 08:00 AM - 05:00 PM; Tue: 08:00 AM - 05:00 PM; Wed: 08:00 AM - 05:00 PM; Thu: 08:00 AM - 05:00 PM; Fri: 08:00 AM - 05:00 PM; Sat: 08:00 AM - 12:00 PM,https://www.machinerypete.com/store/northland-farm-systems-owatonna
RDO Equipment Co. - Ada,Used Ag Sales Department,(855) 770-8248,UsedAGSalesMP@rdoequipment.com,http://www.rdoequipment.com/,"2575 State Hwy. 200Ada, MN 56510",Sun: closed; Mon: 08:30 AM - 05:00 PM; Tue: 08:30 AM - 05:00 PM; Wed: 08:30 AM - 05:00 PM; Thu: 08:30 AM - 05:00 PM; Fri: 08:30 AM - 05:00 PM; Sat: 08:00 AM - 12:00 PM,https://www.machinerypete.com/store/rdo-equipment-co-ada
RDO Equipment Co. - Hawley,Used Ag Sales Department,(844) 689-8718,UsedAGSalesMP@rdoequipment.com,http://www.rdoequipment.com/,"920 O'Donnell St.Hawley, MN 56549",Sun: closed; Mon: 07:30 AM - 05:30 PM; Tue: 07:30 AM - 05:30 PM; Wed: 07:30 AM - 05:30 PM; Thu: 07:30 AM - 05:30 PM; Fri: 07:30 AM - 05:30 PM; Sat: 07:30 AM - 12:00 PM,https://www.machinerypete.com/store/rdo-equipment-co-hawley
"Minnesota Ag Group, Inc. - Plainview",Bob Shanks,(507) 218-8590,bshanksjr@mnaggroup.com,http://www.mnaggroup.com,"400 10th Street SWPlainview, MN 55964",Sun: closed - closed; Mon: 07:00 AM - 06:00 PM; Tue: 07:00 AM - 06:00 PM; Wed: 07:00 AM - 06:00 PM; Thu: 07:00 AM - 06:00 PM; Fri: 07:00 AM - 06:00 PM; Sat: 07:30 AM - 03:00 PM,https://www.machinerypete.com/store/minnesota-ag-group-inc-plainview
Minnesota Equipment - Isanti,Sales Department,(763) 703-1233, isantisales@mnequip.com,https://www.minnesotaequipment.com/,"233 Cajima St. Isanti, MN 55040",Sun: closed; Mon: 07:30 AM - 06:00 PM; Tue: 07:30 AM - 06:00 PM; Wed: 07:30 AM - 06:00 PM; Thu: 07:30 AM - 06:00 PM; Fri: 07:30 AM - 06:00 PM; Sat: 07:30 AM - 04:00 PM,https://www.machinerypete.com/store/minnesota-equipment-isanti
"Minnesota Ag Group, Inc. - Kasson",Craig Poppe,(507) 237-0016,cpoppe@mnaggroup.com,http://www.mnaggroup.com,"601 8th St. SEKasson, MN 55944",Sun: closed - closed; Mon: 07:00 AM - 06:00 PM; Tue: 07:00 AM - 06:00 PM; Wed: 07:00 AM - 06:00 PM; Thu: 07:00 AM - 06:00 PM; Fri: 07:00 AM - 06:00 PM; Sat: 07:30 AM - 03:00 PM,https://www.machinerypete.com/store/minnesota-ag-group-inc-kasson
RDO Equipment Co. - Breckenridge,Used Ag Sales Department,(855) 997-1794,UsedAGSalesMP@rdoequipment.com,http://www.rdoequipment.com/,"905 Buffalo AvenueBreckenridge, MN 56520",Sun: closed; Mon: 07:30 AM - 05:30 PM; Tue: 07:30 AM - 05:30 PM; Wed: 07:30 AM - 05:30 PM; Thu: 07:30 AM - 05:30 PM; Fri: 07:30 AM - 05:30 PM; Sat: 08:00 AM - 12:00 PM,https://www.machinerypete.com/store/rdo-equipment-co-breckenridge
Minnesota Equipment - Rogers,Sales Department,(763) 710-2940, rogerssales@mnequip.com,https://www.minnesotaequipment.com/,"13725 Main StreetRogers, MN 55374",Sun: closed; Mon: 07:00 AM - 06:00 PM; Tue: 07:30 AM - 06:00 PM; Wed: 07:30 AM - 06:00 PM; Thu: 07:30 AM - 06:00 PM; Fri: 07:30 AM - 06:00 PM; Sat: 07:30 AM - 04:00 PM,https://www.machinerypete.com/store/minnesota-equipment-rogers
"Minnesota Ag Group, Inc. - Hastings",Joe Creaser,(651) 419-1862,joe.creaser@mnaggroup.com,http://www.mnaggroup.com,"18202 Nicolai Ave.Hastings, MN 55033",Sun: closed - closed; Mon: 07:00 AM - 06:00 PM; Tue: 07:00 AM - 06:00 PM; Wed: 07:00 AM - 06:00 PM; Thu: 07:00 AM - 06:00 PM; Fri: 07:00 AM - 06:00 PM; Sat: 07:30 AM - 03:00 PM,https://www.machinerypete.com/store/minnesota-ag-group-inc-hastings
Miller Sellner - Slayton,Troy Winter,,troyw@millersellner.com,http://www.millersellner.com,"1535 20th StreetSlayton, MN 56172",Sun: closed; Mon: 07:30 AM - 05:30 PM; Tue: 07:30 AM - 05:30 PM; Wed: 07:30 AM - 05:30 PM; Thu: 07:30 AM - 05:30 PM; Fri: 07:30 AM - 05:30 PM; Sat: 07:30 AM - 12:00 PM,https://www.machinerypete.com/store/miller-sellner-slayton
Miller Sellner- Fairmont,Jared  Miller,,jmiller@millersellner.com,www.millersellner.com,"1205 N. Bixby RoadFairmont, MN 56031",Sun: closed - 05:00 PM; Mon: 07:00 AM - 05:00 PM; Tue: 07:00 AM - 05:00 PM; Wed: 07:00 AM - 05:00 PM; Thu: 07:00 AM - 05:00 PM; Fri: 07:00 AM - 05:00 PM; Sat: 07:00 AM - 12:00 PM,https://www.machinerypete.com/store/miller-sellner-fairmont
Miller Sellner - Sleepy Eye,Doug Miller,,dougm@millersellner.com,http://www.millersellner.com,"22024 State Hwy. 4Sleepy Eye, MN 56085",Sun: closed; Mon: 07:30 AM - 05:30 PM; Tue: 07:30 AM - 05:30 PM; Wed: 07:30 AM - 05:30 PM; Thu: 07:30 AM - 05:30 PM; Fri: 07:30 AM - 05:30 PM; Sat: 07:00 AM - 03:00 PM,https://www.machinerypete.com/store/miller-sellner-sleepy-eye
"Minnesota Ag Group, Inc. - Northfield",Mike Sevcik,(507) 858-6511,mike.sevcik@mnaggroup.com,http://www.mnaggroup.com,"32907 Northfield Blvd.Northfield, MN 55057",Sun: closed - closed; Mon: 07:00 AM - 06:00 PM; Tue: 07:00 AM - 06:00 PM; Wed: 07:00 AM - 06:00 PM; Thu: 07:00 AM - 06:00 PM; Fri: 07:00 AM - 06:00 PM; Sat: 07:30 AM - 03:00 PM,https://www.machinerypete.com/store/minnesota-ag-group-inc-northfield
Miller Sellner - Bingham Lake,Mike Miller,,mikem@millersellner.com,http://www.millersellner.com,"495 2nd Ave.Bingham Lake, MN 56118",Sun: closed - closed; Mon: 07:30 AM - 05:30 PM; Tue: 07:30 AM - 05:30 PM; Wed: 07:30 AM - 05:30 PM; Thu: 07:30 AM - 05:30 PM; Fri: 07:30 AM - 05:30 PM; Sat: 07:30 AM - 12:00 PM,https://www.machinerypete.com/store/miller-sellner-bingham-lake
Midwest Machinery Co. - St. Cloud,Sales Department,(320) 297-6101,usedequipmentsales@mmcjd.com,http://www.midwestmachineryco.com/,"1035 35th Ave. NE - E Hwy. 23St. Cloud, MN 56379",Sun: closed - closed; Mon: 08:00 AM - 05:00 PM; Tue: 08:00 AM - 05:00 PM; Wed: 08:00 AM - 05:00 PM; Thu: 08:00 AM - 05:00 PM; Fri: 08:00 AM - 05:00 PM; Sat: 08:00 AM - 12:00 PM,https://www.machinerypete.com/store/midwest-machinery-co-st-cloud
Midwest Machinery Co. - Wadena,Sales Department,(218) 316-6168,usedequipmentsales@mmcjd.com,http://www.midwestmachineryco.com/,"62505 US Highway 10Wadena, MN 56482",Sun: closed - closed; Mon: 08:00 AM - 05:00 PM; Tue: 08:00 AM - 05:00 PM; Wed: 08:00 AM - 05:00 PM; Thu: 08:00 AM - 05:00 PM; Fri: 08:00 AM - 05:00 PM; Sat: 08:00 AM - 12:00 PM,https://www.machinerypete.com/store/midwest-machinery-co-wadena
Midwest Machinery Co. - Princeton,Sales Department,(763) 703-1348,usedequipmentsales@mmcjd.com,http://www.midwestmachineryco.com/,"3708 Baptist Church Rd.Princeton, MN 55371",Sun: closed - closed; Mon: 08:00 AM - 05:00 PM; Tue: 08:00 AM - 05:00 PM; Wed: 08:00 AM - 05:00 PM; Thu: 08:00 AM - 05:00 PM; Fri: 08:00 AM - 05:00 PM; Sat: 08:00 AM - 12:00 PM,https://www.machinerypete.com/store/midwest-machinery-co-princeton
Midwest Machinery Co. - Stewart,Sales Department,(320) 385-1119,usedequipmentsales@mmcjd.com,http://www.midwestmachineryco.com/,"78412 County Road 20Stewart, MN 55385",Sun: closed - closed; Mon: 08:00 AM - 05:00 PM; Tue: 08:00 AM - 05:00 PM; Wed: 08:00 AM - 05:00 PM; Thu: 08:00 AM - 05:00 PM; Fri: 08:00 AM - 05:00 PM; Sat: 08:00 AM - 12:00 PM,https://www.machinerypete.com/store/midwest-machinery-co-stewart
Midwest Machinery Co. - Sauk Centre,Sales Department,(320) 385-1037,usedequipmentsales@mmcjd.com,http://www.midwestmachineryco.com/,"1140 Centre St.Sauk Centre, MN 56378",Sun: closed - closed; Mon: 08:00 AM - 05:00 PM; Tue: 08:00 AM - 05:00 PM; Wed: 08:00 AM - 05:00 PM; Thu: 08:00 AM - 05:00 PM; Fri: 08:00 AM - 05:00 PM; Sat: 08:00 AM - 12:00 PM,https://www.machinerypete.com/store/midwest-machinery-co-sauk-centre
Midwest Machinery Co. - Morris,Sales Department,(320) 321-0926,usedequipmentsales@mmcjd.com,http://www.midwestmachineryco.com/,"23604 State Hwy. 9Morris, MN 56267",Sun: closed - closed; Mon: 09:00 AM - 05:30 PM; Tue: 09:00 AM - 05:30 PM; Wed: 09:00 AM - 05:30 PM; Thu: 09:00 AM - 05:30 PM; Fri: 09:00 AM - 05:30 PM; Sat: 09:00 AM - 12:00 PM,https://www.machinerypete.com/store/midwest-machinery-co-morris
Midwest Machinery Co. - Paynesville,Sales Department,(320) 381-1356,usedequipmentsales@mmcjd.com,http://www.midwestmachineryco.com/,"725 Lake Ave. SPaynesville, MN 56362",Sun: closed - closed; Mon: 08:00 AM - 05:00 PM; Tue: 08:00 AM - 05:00 PM; Wed: 08:00 AM - 05:00 PM; Thu: 08:00 AM - 05:00 PM; Fri: 08:00 AM - 05:00 PM; Sat: 08:00 AM - 12:00 PM,https://www.machinerypete.com/store/midwest-machinery-co-paynesville
Midwest Machinery Co. - Madison,Sales Department,(320) 345-3568,usedequipmentsales@mmcjd.com,http://www.midwestmachineryco.com/,"516 1st St. E.Madison, MN 56256",Sun: closed - closed; Mon: 09:00 AM - 05:30 PM; Tue: 09:00 AM - 05:30 PM; Wed: 09:00 AM - 05:30 PM; Thu: 09:00 AM - 05:30 PM; Fri: 09:00 AM - 05:30 PM; Sat: 09:00 AM - 12:00 PM,https://www.machinerypete.com/store/midwest-machinery-co-madison
Midwest Machinery Co. - Glenwood,Sales Department,(320) 378-0983,usedequipmentsales@mmcjd.com,http://www.midwestmachineryco.com/,"1710 North Franklin St.Glenwood, MN 56334",Sun: closed - closed; Mon: 08:00 AM - 05:00 PM; Tue: 08:00 AM - 05:00 PM; Wed: 08:00 AM - 05:00 PM; Thu: 08:00 AM - 05:00 PM; Fri: 08:00 AM - 05:00 PM; Sat: 08:00 AM - 12:00 PM,https://www.machinerypete.com/store/midwest-machinery-co-glenwood
Midwest Machinery Co. - Elbow Lake,Sales Department,(218) 316-6601,usedequipmentsales@mmcjd.com,http://www.midwestmachineryco.com/,"110 2nd St.Elbow Lake, MN 56531",Sun: closed - closed; Mon: 09:00 AM - 05:30 PM; Tue: 09:00 AM - 05:30 PM; Wed: 09:00 AM - 05:30 PM; Thu: 09:00 AM - 05:30 PM; Fri: 09:00 AM - 05:30 PM; Sat: 09:00 AM - 12:00 PM,https://www.machinerypete.com/store/midwest-machinery-co-elbow-lake
Midwest Machinery Co. - Little Falls,Sales Department,(320) 307-0168,usedequipmentsales@mmcjd.com,http://www.midwestmachineryco.com/,"16069 Hwy. 27 ELittle Falls, MN 56345",Sun: closed - closed; Mon: 08:00 AM - 05:00 PM; Tue: 08:00 AM - 05:00 PM; Wed: 08:00 AM - 05:00 PM; Thu: 08:00 AM - 05:00 PM; Fri: 08:00 AM - 05:00 PM; Sat: 08:00 AM - 12:00 PM,https://www.machinerypete.com/store/midwest-machinery-co-little-falls
Midwest Machinery Co. - Howard Lake,Sales Department,(320) 348-8013,usedequipmentsales@mmcjd.com,http://www.midwestmachineryco.com/,"5846 Keats Ave. SWHoward Lake, MN 55349",Sun: closed - closed; Mon: 08:00 AM - 05:00 PM; Tue: 08:00 AM - 05:00 PM; Wed: 08:00 AM - 05:00 PM; Thu: 08:00 AM - 05:00 PM; Fri: 08:00 AM - 05:00 PM; Sat: 08:00 AM - 12:00 PM,https://www.machinerypete.com/store/midwest-machinery-co-howard-lake
Midwest Machinery Co. - Glencoe,Sales Department,(320) 385-1124,usedequipmentsales@mmcjd.com,http://www.midwestmachineryco.com/,"4561 Hwy. 212Glencoe, MN 55336",Sun: closed - closed; Mon: 08:00 AM - 05:00 PM; Tue: 08:00 AM - 05:00 PM; Wed: 08:00 AM - 05:00 PM; Thu: 08:00 AM - 05:00 PM; Fri: 08:00 AM - 05:00 PM; Sat: 08:00 AM - 12:00 PM,https://www.machinerypete.com/store/midwest-machinery-co-glencoe
Midwest Machinery Co. - Aitkin,Sales Department,(218) 304-7139,usedequipmentsales@mmcjd.com,http://www.midwestmachineryco.com/,"1120 2nd St. NWAitkin, MN 56431",Sun: closed - closed; Mon: 08:00 AM - 05:00 PM; Tue: 08:00 AM - 05:00 PM; Wed: 08:00 AM - 05:00 PM; Thu: 08:00 AM - 05:00 PM; Fri: 08:00 AM - 05:00 PM; Sat: 08:00 AM - 12:00 PM,https://www.machinerypete.com/store/midwest-machinery-co-aitkin
Midwest Machinery Co. - Baxter,Sales Department,(218) 231-1702,usedequipmentsales@mmcjd.com,http://www.midwestmachineryco.com/,"7045 Foley Rd.Baxter, MN 56425",Sun: closed - closed; Mon: 08:00 AM - 05:00 PM; Tue: 08:00 AM - 05:00 PM; Wed: 08:00 AM - 05:00 PM; Thu: 08:00 AM - 05:00 PM; Fri: 08:00 AM - 05:00 PM; Sat: 08:00 AM - 12:00 PM,https://www.machinerypete.com/store/midwest-machinery-co-baxter
